{"type": "FeatureCollection", "features": [{"type": "Feature", "geometry": {"type": "Point", "coordinates": [-106.5893487, 35.1032925]}, "properties": {"name": "Southwest Cyberport", "operator": "Southwest Cyberport", "website": "https://www.swcp.com/", "note": "", "status": "existing", "osm_id": 1825907839}}, {"type": "Feature", "geometry": {"type": "Point", "coordinates": [-97.6497453, 35.4672049]}, "properties": {"name": "Rack59 Data Center", "operator": "Rack59 Data Center", "website": "", "note": "", "status": "existing", "osm_id": 6401035673}}, {"type": "Feature", "geometry": {"type": "Point", "coordinates": [-96.7828145, 32.7825463]}, "properties": {"name": "VIRTBIZ", "operator": "VIRTBIZ", "website": "https://www.virtbiz.com/", "note": "", "status": "existing", "osm_id": 6856057098}}, {"type": "Feature", "geometry": {"type": "Point", "coordinates": [-95.4860464, 30.1781365]}, "properties": {"name": "Stream Data Centers Houston", "operator": "Stream Data Centers Houston", "website": "https://www.streamdatacenters.com/datacenters/houston-the-woodlands/", "note": "", "status": "existing", "osm_id": 9190480200}}, {"type": "Feature", "geometry": {"type": "Point", "coordinates": [-106.6489853, 35.0844494]}, "properties": {"name": "123 Central", "operator": "bigbyte.cc", "website": "", "note": "", "status": "existing", "osm_id": 9808044840}}, {"type": "Feature", "geometry": {"type": "Point", "coordinates": [-96.8193707, 32.8004101]}, "properties": {"name": "Flexential Dallas - Downtown Dallas", "operator": "Flexential", "website": "https://www.flexential.com/data-centers/tx/dallas/downtown-data-center", "note": "", "status": "existing", "osm_id": 12112238944}}, {"type": "Feature", "geometry": {"type": "Point", "coordinates": [-106.6153476, 35.0867385]}, "properties": {"name": "UNM Data Center", "operator": "UNM", "website": "", "note": "", "status": "existing", "osm_id": 12387534800}}, {"type": "Feature", "geometry": {"type": "Point", "coordinates": [-95.8382826, 36.0994735]}, "properties": {"name": "TulsaConnect DC3", "operator": "TulsaConnect DC3", "website": "", "note": "", "status": "existing", "osm_id": 12793428582}}, {"type": "Feature", "geometry": {"type": "Point", "coordinates": [-96.798496, 32.7784469]}, "properties": {"name": "Rad Web Hosting", "operator": "Rad Web Hosting", "website": "", "note": "", "status": "existing", "osm_id": 13465438761}}, {"type": "Feature", "geometry": {"type": "Point", "coordinates": [-95.989193, 36.153294]}, "properties": {"name": "TulsaConnect", "operator": "TulsaConnect", "website": "", "note": "", "status": "existing", "osm_id": 13720841436}}, {"type": "Feature", "geometry": {"type": "Point", "coordinates": [-95.990514, 36.1485011]}, "properties": {"name": "Windstream", "operator": "Windstream", "website": "", "note": "", "status": "existing", "osm_id": 13720841437}}, {"type": "Feature", "geometry": {"type": "Point", "coordinates": [-95.9908198, 36.1484524]}, "properties": {"name": "TulsaConnect", "operator": "TulsaConnect", "website": "", "note": "", "status": "existing", "osm_id": 13720841438}}, {"type": "Feature", "geometry": {"type": "Point", "coordinates": [-95.989191, 36.153287]}, "properties": {"name": "OCOSA", "operator": "OCOSA", "website": "", "note": "", "status": "existing", "osm_id": 13873419223}}, {"type": "Feature", "geometry": {"type": "Point", "coordinates": [-97.0410284, 32.8327103]}, "properties": {"name": "Cyxtera Dallas-Fort Worth Data Center", "operator": "Cyxtera", "website": "", "note": "", "status": "existing", "osm_id": 25706343}}, {"type": "Feature", "geometry": {"type": "Point", "coordinates": [-96.8195234, 32.8009535]}, "properties": {"name": "Equinix Infomart", "operator": "Equinix", "website": "", "note": "", "status": "existing", "osm_id": 28544618}}, {"type": "Feature", "geometry": {"type": "Point", "coordinates": [-96.7984357, 32.7783107]}, "properties": {"name": "DataBank", "operator": "DataBank", "website": "", "note": "", "status": "existing", "osm_id": 30827429}}, {"type": "Feature", "geometry": {"type": "Point", "coordinates": [-98.4869057, 29.4293706]}, "properties": {"name": "H5 Data Centers San Antonio", "operator": "H5 Data Centers", "website": "https://h5datacenters.com/san-antonio-data-center.html", "note": "", "status": "existing", "osm_id": 102129663}}, {"type": "Feature", "geometry": {"type": "Point", "coordinates": [-95.9886293, 36.1585898]}, "properties": {"name": "TierPoint", "operator": "TierPoint", "website": "https://www.tierpoint.com/data-centers/oklahoma/tulsa-archer/", "note": "", "status": "existing", "osm_id": 159959672}}, {"type": "Feature", "geometry": {"type": "Point", "coordinates": [-106.6180334, 34.9954515]}, "properties": {"name": "Molina Healthcare", "operator": "Molina Healthcare", "website": "", "note": "", "status": "existing", "osm_id": 169170979}}, {"type": "Feature", "geometry": {"type": "Point", "coordinates": [-95.9100413, 36.2625496]}, "properties": {"name": "Cherokee Data Center", "operator": "Cherokee Data Center", "website": "", "note": "", "status": "existing", "osm_id": 195664350}}, {"type": "Feature", "geometry": {"type": "Point", "coordinates": [-96.6815422, 33.096018]}, "properties": {"name": "Data Center", "operator": "Unknown", "website": "", "note": "", "status": "existing", "osm_id": 254773884}}, {"type": "Feature", "geometry": {"type": "Point", "coordinates": [-96.6837876, 33.095083]}, "properties": {"name": "Evoque Allen DA1", "operator": "Centersquare", "website": "", "note": "", "status": "existing", "osm_id": 254773897}}, {"type": "Feature", "geometry": {"type": "Point", "coordinates": [-96.873071, 32.8175508]}, "properties": {"name": "CoreSpace Dallas", "operator": "CoreSpace", "website": "https://corespace.com/data-centers/", "note": "", "status": "existing", "osm_id": 290703004}}, {"type": "Feature", "geometry": {"type": "Point", "coordinates": [-105.9565798, 35.6724585]}, "properties": {"name": "John F. Simms Building", "operator": "SONM", "website": "", "note": "State office, not to be confused with the privately owned  Albuquerque Skyscraper", "status": "existing", "osm_id": 318069356}}, {"type": "Feature", "geometry": {"type": "Point", "coordinates": [-98.5065217, 29.4382791]}, "properties": {"name": "Lumen San Antonio 2", "operator": "Lumen Technologies", "website": "", "note": "", "status": "existing", "osm_id": 319857331}}, {"type": "Feature", "geometry": {"type": "Point", "coordinates": [-98.6906853, 29.47827]}, "properties": {"name": "Microsoft", "operator": "Microsoft", "website": "", "note": "", "status": "existing", "osm_id": 364289073}}, {"type": "Feature", "geometry": {"type": "Point", "coordinates": [-98.6925337, 29.479881]}, "properties": {"name": "Microsoft San Antonio", "operator": "Microsoft", "website": "", "note": "", "status": "existing", "osm_id": 364289074}}, {"type": "Feature", "geometry": {"type": "Point", "coordinates": [-98.6965704, 29.4810535]}, "properties": {"name": "Microsoft", "operator": "Microsoft", "website": "", "note": "", "status": "existing", "osm_id": 364289077}}, {"type": "Feature", "geometry": {"type": "Point", "coordinates": [-96.6609921, 33.1359616]}, "properties": {"name": "Cisco Allen", "operator": "Cisco Allen", "website": "", "note": "", "status": "existing", "osm_id": 373913881}}, {"type": "Feature", "geometry": {"type": "Point", "coordinates": [-97.7235975, 30.261396]}, "properties": {"name": "Lumen Austin 3", "operator": "Lumen Technologies", "website": "", "note": "", "status": "existing", "osm_id": 379195054}}, {"type": "Feature", "geometry": {"type": "Point", "coordinates": [-97.722122, 30.2610525]}, "properties": {"name": "Alpheus DataCenter", "operator": "Alpheus", "website": "", "note": "", "status": "existing", "osm_id": 379199519}}, {"type": "Feature", "geometry": {"type": "Point", "coordinates": [-97.6957555, 30.212156]}, "properties": {"name": "Digital Realty Austin AUS11", "operator": "Digital Realty Austin AUS11", "website": "https://www.digitalrealty.com/data-centers/americas/austin/aus11", "note": "", "status": "existing", "osm_id": 379204279}}, {"type": "Feature", "geometry": {"type": "Point", "coordinates": [-97.707046, 30.2006765]}, "properties": {"name": "LightEdge Austin II", "operator": "LightEdge Austin II", "website": "https://www.lightedge.com/austin-data-center/", "note": "", "status": "existing", "osm_id": 379204643}}, {"type": "Feature", "geometry": {"type": "Point", "coordinates": [-97.6979506, 30.2059205]}, "properties": {"name": "CyrusOne Austin Data Center II", "operator": "CyrusOne Austin Data Center II", "website": "https://www.cyrusone.com/data-centers/north-america/texas/aus2-austin-texas", "note": "", "status": "existing", "osm_id": 379204766}}, {"type": "Feature", "geometry": {"type": "Point", "coordinates": [-97.696074, 30.215504]}, "properties": {"name": "Data Foundry Austin 1 Data Center", "operator": "Data Foundry Austin 1 Data Center", "website": "https://www.datafoundry.com/data-centers/austin-1", "note": "", "status": "existing", "osm_id": 379205427}}, {"type": "Feature", "geometry": {"type": "Point", "coordinates": [-97.7126675, 30.2142972]}, "properties": {"name": "LightEdge Austin I", "operator": "LightEdge Austin I", "website": "https://www.lightedge.com/austin-data-center/", "note": "", "status": "existing", "osm_id": 382785871}}, {"type": "Feature", "geometry": {"type": "Point", "coordinates": [-97.7124025, 30.1965]}, "properties": {"name": "Lumen Austin 1", "operator": "Lumen Austin 1", "website": "", "note": "", "status": "existing", "osm_id": 383888101}}, {"type": "Feature", "geometry": {"type": "Point", "coordinates": [-97.7137835, 30.198907]}, "properties": {"name": "Data Foundry - Texas 1", "operator": "Data Foundry - Texas 1", "website": "https://www.datafoundry.com/data-centers/data-foundry-01/", "note": "", "status": "existing", "osm_id": 383888914}}, {"type": "Feature", "geometry": {"type": "Point", "coordinates": [-97.6961735, 30.3428035]}, "properties": {"name": "Element Critical", "operator": "Element Critical", "website": "", "note": "", "status": "existing", "osm_id": 384396017}}, {"type": "Feature", "geometry": {"type": "Point", "coordinates": [-97.7011317, 30.2070062]}, "properties": {"name": "CyrusOne Austin Data Center III", "operator": "CyrusOne Austin Data Center III", "website": "https://www.cyrusone.com/data-centers/north-america/texas/aus3-austin", "note": "", "status": "existing", "osm_id": 455171103}}, {"type": "Feature", "geometry": {"type": "Point", "coordinates": [-96.8685888, 32.8069549]}, "properties": {"name": "Lumen Dallas - 3180 Irving Blvd.", "operator": "Lumen Technologies", "website": "", "note": "", "status": "existing", "osm_id": 465032201}}, {"type": "Feature", "geometry": {"type": "Point", "coordinates": [-96.8784007, 32.8379581]}, "properties": {"name": "Prime DFW01-01", "operator": "Prime", "website": "https://primedatacenters.com/locations/dallas/", "note": "", "status": "existing", "osm_id": 465032380}}, {"type": "Feature", "geometry": {"type": "Point", "coordinates": [-96.8843787, 32.827998]}, "properties": {"name": "Lumen Dallas 6", "operator": "Lumen Technologies", "website": "", "note": "", "status": "existing", "osm_id": 465032484}}, {"type": "Feature", "geometry": {"type": "Point", "coordinates": [-96.8737498, 32.8275499]}, "properties": {"name": "Digital Realty DFW36", "operator": "Digital Realty", "website": "https://www.digitalrealty.com/data-centers/americas/dallas/dfw36", "note": "", "status": "existing", "osm_id": 465032487}}, {"type": "Feature", "geometry": {"type": "Point", "coordinates": [-96.873553, 32.8217503]}, "properties": {"name": "DataBank Dallas Empire Central Data Center", "operator": "DataBank", "website": "https://www.databank.com/data-centers/dallas/1100-empire-central-place/", "note": "", "status": "existing", "osm_id": 465032631}}, {"type": "Feature", "geometry": {"type": "Point", "coordinates": [-96.8573889, 32.8079818]}, "properties": {"name": "TierPoint Dallas Data Center", "operator": "TierPoint", "website": "https://www.tierpoint.com/data-centers/texas/dallas/", "note": "", "status": "existing", "osm_id": 465042594}}, {"type": "Feature", "geometry": {"type": "Point", "coordinates": [-96.7946364, 32.7837489]}, "properties": {"name": "Live Oak Data Center", "operator": "Live Oak Data Center", "website": "", "note": "", "status": "existing", "osm_id": 471658485}}, {"type": "Feature", "geometry": {"type": "Point", "coordinates": [-96.6765617, 33.0093142]}, "properties": {"name": "Data Center", "operator": "Unknown", "website": "", "note": "", "status": "existing", "osm_id": 483286527}}, {"type": "Feature", "geometry": {"type": "Point", "coordinates": [-96.657329, 33.1379102]}, "properties": {"name": "Tierpoint Dallas-Allen", "operator": "Tierpoint Dallas-Allen", "website": "", "note": "", "status": "existing", "osm_id": 483307714}}, {"type": "Feature", "geometry": {"type": "Point", "coordinates": [-95.8637474, 30.0187]}, "properties": {"name": "DXC Technology", "operator": "DXC Technology", "website": "", "note": "", "status": "existing", "osm_id": 487170215}}, {"type": "Feature", "geometry": {"type": "Point", "coordinates": [-97.259335, 32.9837829]}, "properties": {"name": "Facebook Fort Worth Datacenter", "operator": "Meta", "website": "", "note": "", "status": "existing", "osm_id": 500820007}}, {"type": "Feature", "geometry": {"type": "Point", "coordinates": [-97.2452902, 33.0063815]}, "properties": {"name": "CITIGROUP TECHNOLOGY INC", "operator": "CITIGROUP TECHNOLOGY INC", "website": "", "note": "", "status": "existing", "osm_id": 507673418}}, {"type": "Feature", "geometry": {"type": "Point", "coordinates": [-97.2592738, 32.9889133]}, "properties": {"name": "QTS Data Center", "operator": "Quality Technology Services", "website": "", "note": "", "status": "existing", "osm_id": 507673437}}, {"type": "Feature", "geometry": {"type": "Point", "coordinates": [-98.6407158, 29.4473786]}, "properties": {"name": "Texas Cryptologic Center", "operator": "National Security Agency", "website": "", "note": "", "status": "existing", "osm_id": 509611414}}, {"type": "Feature", "geometry": {"type": "Point", "coordinates": [-98.6895745, 29.4728539]}, "properties": {"name": "Lowe's Data Center", "operator": "Lowe's", "website": "", "note": "", "status": "existing", "osm_id": 509611423}}, {"type": "Feature", "geometry": {"type": "Point", "coordinates": [-98.6861914, 29.4703276]}, "properties": {"name": "CHRISTUS Health", "operator": "CHRISTUS Health", "website": "", "note": "", "status": "existing", "osm_id": 509611426}}, {"type": "Feature", "geometry": {"type": "Point", "coordinates": [-98.6876674, 29.4702125]}, "properties": {"name": "Frost Bank", "operator": "Frost Bank", "website": "", "note": "", "status": "existing", "osm_id": 509611429}}, {"type": "Feature", "geometry": {"type": "Point", "coordinates": [-98.6880869, 29.4666098]}, "properties": {"name": "CyrusOne San Antonio I", "operator": "CyrusOne", "website": "https://cyrusone.com/data-center-locations/texas/san-antonio-texas/", "note": "", "status": "existing", "osm_id": 509611432}}, {"type": "Feature", "geometry": {"type": "Point", "coordinates": [-98.6800789, 29.4742368]}, "properties": {"name": "Valero Wiserman", "operator": "Valero", "website": "", "note": "", "status": "existing", "osm_id": 509611436}}, {"type": "Feature", "geometry": {"type": "Point", "coordinates": [-98.6717199, 29.472003]}, "properties": {"name": "Stream San Antonio II", "operator": "Stream San Antonio II", "website": "", "note": "", "status": "existing", "osm_id": 509611437}}, {"type": "Feature", "geometry": {"type": "Point", "coordinates": [-98.6730474, 29.4708878]}, "properties": {"name": "CyrusOne San Antonio II", "operator": "CyrusOne", "website": "https://cyrusone.com/data-center-locations/texas/san-antonio-texas-ii/", "note": "", "status": "existing", "osm_id": 509611438}}, {"type": "Feature", "geometry": {"type": "Point", "coordinates": [-98.6721062, 29.4700573]}, "properties": {"name": "CyrusOne San Antonio III", "operator": "CyrusOne", "website": "", "note": "", "status": "existing", "osm_id": 509611439}}, {"type": "Feature", "geometry": {"type": "Point", "coordinates": [-96.9826475, 32.8972479]}, "properties": {"name": "QTS Irving - Dallas Data Center Campus", "operator": "Quality Technology Services", "website": "https://www.qtsdatacenters.com/data-centers/irving", "note": "", "status": "existing", "osm_id": 526806006}}, {"type": "Feature", "geometry": {"type": "Point", "coordinates": [-95.5633335, 29.9951976]}, "properties": {"name": "DXC Technology", "operator": "DXC Technology", "website": "", "note": "", "status": "existing", "osm_id": 543316327}}, {"type": "Feature", "geometry": {"type": "Point", "coordinates": [-95.5640398, 29.9973349]}, "properties": {"name": "DXC Technology", "operator": "DXC Technology", "website": "", "note": "", "status": "existing", "osm_id": 543404966}}, {"type": "Feature", "geometry": {"type": "Point", "coordinates": [-96.7524974, 32.9948122]}, "properties": {"name": "Flexential Dallas - Richardson", "operator": "Flexential", "website": "https://www.flexential.com/data-centers/tx/dallas/richardson-data-center", "note": "", "status": "existing", "osm_id": 548184239}}, {"type": "Feature", "geometry": {"type": "Point", "coordinates": [-96.725505, 33.1717958]}, "properties": {"name": "Experian McKinney Data Center", "operator": "Experian McKinney Data Center", "website": "", "note": "", "status": "existing", "osm_id": 549418041}}, {"type": "Feature", "geometry": {"type": "Point", "coordinates": [-97.0702974, 32.8504831]}, "properties": {"name": "Amazon Web Services", "operator": "Amazon Web Services", "website": "", "note": "", "status": "existing", "osm_id": 557140229}}, {"type": "Feature", "geometry": {"type": "Point", "coordinates": [-97.591603, 30.4211412]}, "properties": {"name": "Thin-nology", "operator": "Thin-nology", "website": "", "note": "", "status": "existing", "osm_id": 570397131}}, {"type": "Feature", "geometry": {"type": "Point", "coordinates": [-97.71307, 30.1995736]}, "properties": {"name": "Data Foundry - Texas 2", "operator": "Data Foundry - Texas 2", "website": "https://www.datafoundry.com/data-centers/data-foundry-02/", "note": "", "status": "existing", "osm_id": 577628941}}, {"type": "Feature", "geometry": {"type": "Point", "coordinates": [-95.5708004, 29.8215755]}, "properties": {"name": "Data Center", "operator": "Unknown", "website": "", "note": "", "status": "existing", "osm_id": 587103676}}, {"type": "Feature", "geometry": {"type": "Point", "coordinates": [-96.6559411, 33.1378233]}, "properties": {"name": "Data Center", "operator": "Unknown", "website": "", "note": "", "status": "existing", "osm_id": 590213770}}, {"type": "Feature", "geometry": {"type": "Point", "coordinates": [-96.6599516, 33.1385206]}, "properties": {"name": "CyrusOne Allen", "operator": "CyrusOne", "website": "", "note": "", "status": "existing", "osm_id": 590213771}}, {"type": "Feature", "geometry": {"type": "Point", "coordinates": [-96.6616465, 33.0001441]}, "properties": {"name": "Stream DFW IV", "operator": "Stream", "website": "https://www.streamdatacenters.com/locations/dfw/", "note": "", "status": "existing", "osm_id": 597835788}}, {"type": "Feature", "geometry": {"type": "Point", "coordinates": [-96.7158554, 32.9647813]}, "properties": {"name": "Rackspace Richardson DFW3", "operator": "Rackspace", "website": "https://www.rackspace.com/resources/rackspace-data-center-dfw3", "note": "", "status": "existing", "osm_id": 597876719}}, {"type": "Feature", "geometry": {"type": "Point", "coordinates": [-96.7132121, 32.9662804]}, "properties": {"name": "Digital Realty Dallas DFW17", "operator": "Digital Realty", "website": "https://www.digitalrealty.com/data-centers/americas/dallas/dfw17", "note": "", "status": "existing", "osm_id": 597876721}}, {"type": "Feature", "geometry": {"type": "Point", "coordinates": [-96.7105291, 32.9672759]}, "properties": {"name": "Digital Realty Dallas DFW29", "operator": "Digital Realty", "website": "https://www.digitalrealty.com/data-centers/americas/dallas/dfw29", "note": "", "status": "existing", "osm_id": 597876722}}, {"type": "Feature", "geometry": {"type": "Point", "coordinates": [-96.7112265, 32.9662442]}, "properties": {"name": "Data Center", "operator": "Unknown", "website": "", "note": "", "status": "existing", "osm_id": 597876723}}, {"type": "Feature", "geometry": {"type": "Point", "coordinates": [-96.7133223, 32.9672823]}, "properties": {"name": "Digital Realty Dallas DFW28", "operator": "Digital Realty", "website": "https://www.digitalrealty.com/data-centers/americas/dallas/dfw28", "note": "", "status": "existing", "osm_id": 597876724}}, {"type": "Feature", "geometry": {"type": "Point", "coordinates": [-96.7102551, 32.9650496]}, "properties": {"name": "Digital Realty Dallas DFW35", "operator": "Digital Realty", "website": "https://www.digitalrealty.com/data-centers/americas/dallas/dfw35", "note": "", "status": "existing", "osm_id": 597876726}}, {"type": "Feature", "geometry": {"type": "Point", "coordinates": [-96.7126115, 32.9652584]}, "properties": {"name": "Digital Realty Dallas DFW18", "operator": "Digital Realty", "website": "https://www.digitalrealty.com/data-centers/americas/dallas/dfw18", "note": "", "status": "existing", "osm_id": 597876730}}, {"type": "Feature", "geometry": {"type": "Point", "coordinates": [-96.715592, 32.9660428]}, "properties": {"name": "Digital Realty Dallas DFW16", "operator": "Digital Realty", "website": "https://www.digitalrealty.com/data-centers/americas/dallas/dfw16", "note": "", "status": "existing", "osm_id": 597876798}}, {"type": "Feature", "geometry": {"type": "Point", "coordinates": [-98.8039948, 29.411987]}, "properties": {"name": "Microsoft TRP2", "operator": "Microsoft", "website": "", "note": "", "status": "existing", "osm_id": 639176155}}, {"type": "Feature", "geometry": {"type": "Point", "coordinates": [-98.8027302, 29.4120123]}, "properties": {"name": "Microsoft TRP1", "operator": "Microsoft", "website": "", "note": "", "status": "existing", "osm_id": 639176157}}, {"type": "Feature", "geometry": {"type": "Point", "coordinates": [-96.6663507, 33.007033]}, "properties": {"name": "Flexential Dallas - Plano", "operator": "Flexential", "website": "https://www.flexential.com/data-centers/tx/dallas/plano-data-center", "note": "", "status": "existing", "osm_id": 650412346}}, {"type": "Feature", "geometry": {"type": "Point", "coordinates": [-95.4433121, 29.6581451]}, "properties": {"name": "Rice Data Center", "operator": "Rice Data Center", "website": "", "note": "", "status": "existing", "osm_id": 671838900}}, {"type": "Feature", "geometry": {"type": "Point", "coordinates": [-97.2550451, 32.9849203]}, "properties": {"name": "Facebook Fort Worth Datacenter", "operator": "Meta", "website": "", "note": "", "status": "existing", "osm_id": 673145182}}, {"type": "Feature", "geometry": {"type": "Point", "coordinates": [-106.5421546, 35.0483475]}, "properties": {"name": "Data Center", "operator": "Unknown", "website": "", "note": "", "status": "existing", "osm_id": 706081342}}, {"type": "Feature", "geometry": {"type": "Point", "coordinates": [-97.7006616, 30.207113]}, "properties": {"name": "Data Center", "operator": "Unknown", "website": "", "note": "", "status": "existing", "osm_id": 713411278}}, {"type": "Feature", "geometry": {"type": "Point", "coordinates": [-97.6979411, 30.2059357]}, "properties": {"name": "Data Center", "operator": "Unknown", "website": "", "note": "", "status": "existing", "osm_id": 713411279}}, {"type": "Feature", "geometry": {"type": "Point", "coordinates": [-96.8152181, 33.087741]}, "properties": {"name": "DataBank Plano Data Center", "operator": "DataBank Plano Data Center", "website": "https://www.databank.com/data-centers/dallas/plano-campus/plano-data-center/", "note": "", "status": "existing", "osm_id": 714120969}}, {"type": "Feature", "geometry": {"type": "Point", "coordinates": [-95.7553386, 29.802893]}, "properties": {"name": "Skybox Houston One", "operator": "Skybox", "website": "https://skyboxdatacenters.com/locations/skybox-houston", "note": "", "status": "existing", "osm_id": 714776107}}, {"type": "Feature", "geometry": {"type": "Point", "coordinates": [-96.4028488, 33.9716849]}, "properties": {"name": "Choctaw Nation of Oklahoma Data Center", "operator": "Choctaw Nation of oklahoma", "website": "", "note": "", "status": "existing", "osm_id": 726150321}}, {"type": "Feature", "geometry": {"type": "Point", "coordinates": [-95.486593, 30.1777082]}, "properties": {"name": "Data Center", "operator": "Unknown", "website": "", "note": "", "status": "existing", "osm_id": 744177375}}, {"type": "Feature", "geometry": {"type": "Point", "coordinates": [-98.5247859, 33.9533733]}, "properties": {"name": "Data Center", "operator": "Unknown", "website": "", "note": "", "status": "existing", "osm_id": 747985149}}, {"type": "Feature", "geometry": {"type": "Point", "coordinates": [-97.255111, 32.9883157]}, "properties": {"name": "Facebook Fort Worth Datacenter", "operator": "Meta", "website": "", "note": "", "status": "existing", "osm_id": 815057182}}, {"type": "Feature", "geometry": {"type": "Point", "coordinates": [-97.2461412, 33.0045123]}, "properties": {"name": "Charles Schwab Data Center", "operator": "Charles Schwab Data Center", "website": "", "note": "", "status": "existing", "osm_id": 815078625}}, {"type": "Feature", "geometry": {"type": "Point", "coordinates": [-97.0624648, 32.4421391]}, "properties": {"name": "Google", "operator": "Google", "website": "", "note": "", "status": "existing", "osm_id": 844386860}}, {"type": "Feature", "geometry": {"type": "Point", "coordinates": [-97.0633095, 32.4435639]}, "properties": {"name": "Google", "operator": "Google", "website": "", "note": "", "status": "existing", "osm_id": 844386861}}, {"type": "Feature", "geometry": {"type": "Point", "coordinates": [-96.8044586, 32.5387671]}, "properties": {"name": "Compass Data Center", "operator": "Compass Data Center", "website": "", "note": "", "status": "existing", "osm_id": 850965775}}, {"type": "Feature", "geometry": {"type": "Point", "coordinates": [-95.8541492, 36.0812515]}, "properties": {"name": "Data Center", "operator": "Unknown", "website": "", "note": "", "status": "existing", "osm_id": 946014659}}, {"type": "Feature", "geometry": {"type": "Point", "coordinates": [-97.1567144, 32.9720407]}, "properties": {"name": "Verizon Wireless Mew Building", "operator": "Verizon Wireless Mew Building", "website": "", "note": "", "status": "existing", "osm_id": 989325195}}, {"type": "Feature", "geometry": {"type": "Point", "coordinates": [-98.7874813, 29.4190024]}, "properties": {"name": "Data Center", "operator": "Unknown", "website": "", "note": "", "status": "existing", "osm_id": 1010260674}}, {"type": "Feature", "geometry": {"type": "Point", "coordinates": [-98.8063744, 29.412977]}, "properties": {"name": "Microsoft TRP3 (SAT46)", "operator": "Microsoft", "website": "", "note": "", "status": "existing", "osm_id": 1010260675}}, {"type": "Feature", "geometry": {"type": "Point", "coordinates": [-98.803316, 29.4157967]}, "properties": {"name": "Microsoft", "operator": "Microsoft", "website": "", "note": "", "status": "existing", "osm_id": 1010260676}}, {"type": "Feature", "geometry": {"type": "Point", "coordinates": [-98.8045148, 29.4157956]}, "properties": {"name": "Microsoft", "operator": "Microsoft", "website": "", "note": "", "status": "existing", "osm_id": 1010260677}}, {"type": "Feature", "geometry": {"type": "Point", "coordinates": [-98.6531261, 29.4491574]}, "properties": {"name": "QTS San Antonio II", "operator": "Quality Technology Services", "website": "", "note": "", "status": "existing", "osm_id": 1081973944}}, {"type": "Feature", "geometry": {"type": "Point", "coordinates": [-98.3620123, 26.0778666]}, "properties": {"name": "Data Center", "operator": "Unknown", "website": "", "note": "", "status": "existing", "osm_id": 1087123851}}, {"type": "Feature", "geometry": {"type": "Point", "coordinates": [-98.670723, 29.47076]}, "properties": {"name": "CyrusOne San Antonio IV", "operator": "CyrusOne San Antonio IV", "website": "", "note": "", "status": "existing", "osm_id": 1121592786}}, {"type": "Feature", "geometry": {"type": "Point", "coordinates": [-96.9819377, 32.8947608]}, "properties": {"name": "Data Center", "operator": "Unknown", "website": "", "note": "", "status": "existing", "osm_id": 1177794153}}, {"type": "Feature", "geometry": {"type": "Point", "coordinates": [-97.6189387, 30.2156048]}, "properties": {"name": "Cortex supercomputer", "operator": "Cortex supercomputer", "website": "", "note": "", "status": "existing", "osm_id": 1221574918}}, {"type": "Feature", "geometry": {"type": "Point", "coordinates": [-97.3196729, 32.6512011]}, "properties": {"name": "Novartis", "operator": "Novartis", "website": "", "note": "", "status": "existing", "osm_id": 1227550179}}, {"type": "Feature", "geometry": {"type": "Point", "coordinates": [-98.4626475, 29.686403]}, "properties": {"name": "GVTC", "operator": "GVTC", "website": "", "note": "", "status": "existing", "osm_id": 1296723872}}, {"type": "Feature", "geometry": {"type": "Point", "coordinates": [-96.6542632, 32.9836243]}, "properties": {"name": "Stream Data Centers", "operator": "Stream Data Centers", "website": "https://www.streamdatacenters.com/", "note": "", "status": "existing", "osm_id": 1300765126}}, {"type": "Feature", "geometry": {"type": "Point", "coordinates": [-97.7316918, 32.3413407]}, "properties": {"name": "MARA Data Center", "operator": "Marathon Digital Holdings", "website": "https://www.maragranbury.com/", "note": "", "status": "existing", "osm_id": 1301559332}}, {"type": "Feature", "geometry": {"type": "Point", "coordinates": [-98.5413037, 29.5801522]}, "properties": {"name": "HEB", "operator": "HEB", "website": "", "note": "", "status": "existing", "osm_id": 1310628998}}, {"type": "Feature", "geometry": {"type": "Point", "coordinates": [-98.7878367, 29.4182209]}, "properties": {"name": "CyrusOne SAT10 & SAT11", "operator": "CyrusOne", "website": "", "note": "", "status": "existing", "osm_id": 1344366214}}, {"type": "Feature", "geometry": {"type": "Point", "coordinates": [-98.6387042, 29.4506766]}, "properties": {"name": "Amazon", "operator": "Amazon", "website": "", "note": "", "status": "existing", "osm_id": 1344369104}}, {"type": "Feature", "geometry": {"type": "Point", "coordinates": [-98.788796, 29.418466]}, "properties": {"name": "Data Center", "operator": "Unknown", "website": "", "note": "", "status": "existing", "osm_id": 1344369111}}, {"type": "Feature", "geometry": {"type": "Point", "coordinates": [-95.5124166, 35.5681349]}, "properties": {"name": "Data Center", "operator": "Unknown", "website": "", "note": "", "status": "existing", "osm_id": 1387080629}}, {"type": "Feature", "geometry": {"type": "Point", "coordinates": [-96.7932072, 32.5390042]}, "properties": {"name": "Google", "operator": "Google", "website": "", "note": "", "status": "existing", "osm_id": 1426525184}}, {"type": "Feature", "geometry": {"type": "Point", "coordinates": [-96.802207, 32.5455044]}, "properties": {"name": "Compass Data Center", "operator": "Compass Data Center", "website": "", "note": "", "status": "existing", "osm_id": 1426525212}}, {"type": "Feature", "geometry": {"type": "Point", "coordinates": [-96.802189, 32.5441919]}, "properties": {"name": "Compass Data Center", "operator": "Compass Data Center", "website": "", "note": "", "status": "existing", "osm_id": 1426525213}}, {"type": "Feature", "geometry": {"type": "Point", "coordinates": [-96.8021938, 32.5428991]}, "properties": {"name": "Compass Data Center", "operator": "Compass Data Center", "website": "", "note": "", "status": "existing", "osm_id": 1426525214}}, {"type": "Feature", "geometry": {"type": "Point", "coordinates": [-96.8022074, 32.5415885]}, "properties": {"name": "Compass Data Center", "operator": "Compass Data Center", "website": "", "note": "", "status": "existing", "osm_id": 1426525215}}, {"type": "Feature", "geometry": {"type": "Point", "coordinates": [-96.8022204, 32.5402764]}, "properties": {"name": "Compass Data Center", "operator": "Compass Data Center", "website": "", "note": "", "status": "existing", "osm_id": 1426525216}}, {"type": "Feature", "geometry": {"type": "Point", "coordinates": [-96.793719, 32.5426759]}, "properties": {"name": "Compass Data Center", "operator": "Compass Data Center", "website": "", "note": "", "status": "existing", "osm_id": 1426525217}}, {"type": "Feature", "geometry": {"type": "Point", "coordinates": [-96.7937194, 32.5439941]}, "properties": {"name": "Compass Data Center", "operator": "Compass Data Center", "website": "", "note": "", "status": "existing", "osm_id": 1426525218}}, {"type": "Feature", "geometry": {"type": "Point", "coordinates": [-96.7937562, 32.5452986]}, "properties": {"name": "Compass Data Center", "operator": "Compass Data Center", "website": "", "note": "", "status": "existing", "osm_id": 1426525219}}, {"type": "Feature", "geometry": {"type": "Point", "coordinates": [-96.7883983, 32.5439608]}, "properties": {"name": "Compass Data Center", "operator": "Compass Data Center", "website": "", "note": "", "status": "existing", "osm_id": 1426525220}}, {"type": "Feature", "geometry": {"type": "Point", "coordinates": [-96.7883821, 32.5452921]}, "properties": {"name": "Compass Data Center", "operator": "Compass Data Center", "website": "", "note": "", "status": "existing", "osm_id": 1426525221}}, {"type": "Feature", "geometry": {"type": "Point", "coordinates": [-98.7144036, 29.44968]}, "properties": {"name": "Data Center", "operator": "Unknown", "website": "", "note": "", "status": "existing", "osm_id": 1432637060}}, {"type": "Feature", "geometry": {"type": "Point", "coordinates": [-98.7139083, 29.4509306]}, "properties": {"name": "Data Center", "operator": "Unknown", "website": "", "note": "", "status": "existing", "osm_id": 1432637061}}, {"type": "Feature", "geometry": {"type": "Point", "coordinates": [-98.7140639, 29.4522303]}, "properties": {"name": "Data Center", "operator": "Unknown", "website": "", "note": "", "status": "existing", "osm_id": 1432637062}}, {"type": "Feature", "geometry": {"type": "Point", "coordinates": [-97.0748553, 32.5498227]}, "properties": {"name": "Alinged Data Center", "operator": "Aligned Data Centers, LLC", "website": "", "note": "", "status": "existing", "osm_id": 1443620406}}, {"type": "Feature", "geometry": {"type": "Point", "coordinates": [-103.4485477, 31.5134441]}, "properties": {"name": "IONIC Digital Cedarvale", "operator": "IONIC Digital", "website": "", "note": "", "status": "existing", "osm_id": 1455361421}}, {"type": "Feature", "geometry": {"type": "Point", "coordinates": [-97.0609199, 32.4401038]}, "properties": {"name": "Google", "operator": "Google", "website": "", "note": "", "status": "existing", "osm_id": 1458626323}}, {"type": "Feature", "geometry": {"type": "Point", "coordinates": [-98.3915987, 29.2930099]}, "properties": {"name": "Amazon AWS SAT - 12807 Donop", "operator": "Amazon Web Services", "website": "", "note": "", "status": "existing", "osm_id": 1460861317}}, {"type": "Feature", "geometry": {"type": "Point", "coordinates": [-96.8798458, 32.8378141]}, "properties": {"name": "Prime DFW01-01", "operator": "Prime", "website": "https://primedatacenters.com/locations/dallas/", "note": "", "status": "existing", "osm_id": 1461896928}}, {"type": "Feature", "geometry": {"type": "Point", "coordinates": [-96.6595258, 33.1406469]}, "properties": {"name": "Data Center", "operator": "Unknown", "website": "", "note": "", "status": "existing", "osm_id": 1484435248}}, {"type": "Feature", "geometry": {"type": "Point", "coordinates": [-96.6570922, 33.0060071]}, "properties": {"name": "Aligned Data Centers", "operator": "Aligned Data Centers", "website": "https://aligneddc.com/dallas-data-centers/", "note": "", "status": "existing", "osm_id": 1486780799}}, {"type": "Feature", "geometry": {"type": "Point", "coordinates": [-100.8689012, 33.777264]}, "properties": {"name": "Argo Data Center", "operator": "Argo Data Center", "website": "", "note": "", "status": "existing", "osm_id": 1490401523}}, {"type": "Feature", "geometry": {"type": "Point", "coordinates": [-97.6725256, 30.4880189]}, "properties": {"name": "Switch: The Rock", "operator": "Switch", "website": "", "note": "", "status": "existing", "osm_id": 1493169641}}, {"type": "Feature", "geometry": {"type": "Point", "coordinates": [-97.2982979, 31.0575233]}, "properties": {"name": "Data Center", "operator": "Unknown", "website": "", "note": "", "status": "existing", "osm_id": 1498670679}}, {"type": "Feature", "geometry": {"type": "Point", "coordinates": [-98.6977011, 29.4790852]}, "properties": {"name": "Vantage Data Centers TX22", "operator": "Vantage Data Centers", "website": "", "note": "", "status": "existing", "osm_id": 1502710557}}, {"type": "Feature", "geometry": {"type": "Point", "coordinates": [-98.698835, 29.4702203]}, "properties": {"name": "Data Center", "operator": "Unknown", "website": "", "note": "", "status": "existing", "osm_id": 1502711381}}, {"type": "Feature", "geometry": {"type": "Point", "coordinates": [-106.3099264, 31.7500067]}, "properties": {"name": "MDC", "operator": "MDC", "website": "", "note": "", "status": "existing", "osm_id": 1504463315}}, {"type": "Feature", "geometry": {"type": "Point", "coordinates": [-103.8062715, 31.5327486]}, "properties": {"name": "Data Center", "operator": "Unknown", "website": "", "note": "", "status": "existing", "osm_id": 1511639842}}, {"type": "Feature", "geometry": {"type": "Point", "coordinates": [-103.8052292, 31.5327486]}, "properties": {"name": "Data Center", "operator": "Unknown", "website": "", "note": "", "status": "existing", "osm_id": 1511639843}}, {"type": "Feature", "geometry": {"type": "Point", "coordinates": [-103.8041922, 31.5327607]}, "properties": {"name": "Data Center", "operator": "Unknown", "website": "", "note": "", "status": "existing", "osm_id": 1511639844}}, {"type": "Feature", "geometry": {"type": "Point", "coordinates": [-103.800415, 31.5333451]}, "properties": {"name": "Data Center", "operator": "Unknown", "website": "", "note": "", "status": "existing", "osm_id": 1511639845}}, {"type": "Feature", "geometry": {"type": "Point", "coordinates": [-106.4810659, 32.3805057]}, "properties": {"name": "Information Systems Facility", "operator": "WSMR", "website": "", "note": "", "status": "existing", "osm_id": 1519367009}}]}