{"type": "FeatureCollection", "features": [{"type": "Feature", "geometry": {"type": "Point", "coordinates": [-99.18071610216634, 34.08622356556515]}, "properties": {"NAME": "UNKNOWN18615", "MAX_VOLTAG": 345, "MIN_VOLTAG": 345, "CITY": "NOT AVAILABLE", "STATE": "TX", "LATITUDE": 34.0862235660001, "LONGITUDE": -99.180716102, "LINES": 3}}, {"type": "Feature", "geometry": {"type": "Point", "coordinates": [-101.39168486616359, 36.496324524757085]}, "properties": {"NAME": "HITCHLAND", "MAX_VOLTAG": 345, "MIN_VOLTAG": 345, "CITY": "NOT AVAILABLE", "STATE": "TX", "LATITUDE": 36.496324525, "LONGITUDE": -101.391684866, "LINES": 11}}, {"type": "Feature", "geometry": {"type": "Point", "coordinates": [-101.92262146530834, 35.31028630766701]}, "properties": {"NAME": "POTTER", "MAX_VOLTAG": 345, "MIN_VOLTAG": 115, "CITY": "AMARILLO", "STATE": "TX", "LATITUDE": 35.3102863080001, "LONGITUDE": -101.922621465, "LINES": 8}}, {"type": "Feature", "geometry": {"type": "Point", "coordinates": [-102.5699866698489, 34.18135155922715]}, "properties": {"NAME": "UNKNOWN18302", "MAX_VOLTAG": 345, "MIN_VOLTAG": 230, "CITY": "NOT AVAILABLE", "STATE": "TX", "LATITUDE": 34.1813515590001, "LONGITUDE": -102.56998667, "LINES": 9}}, {"type": "Feature", "geometry": {"type": "Point", "coordinates": [-101.84341246741138, 33.86909730229871]}, "properties": {"NAME": "UNKNOWN18307", "MAX_VOLTAG": 345, "MIN_VOLTAG": 230, "CITY": "ABERNATHY", "STATE": "TX", "LATITUDE": 33.8690973020001, "LONGITUDE": -101.843412467, "LINES": 10}}, {"type": "Feature", "geometry": {"type": "Point", "coordinates": [-97.05282405308753, 32.42847870722659]}, "properties": {"NAME": "UNKNOWN25771", "MAX_VOLTAG": 345, "MIN_VOLTAG": 345, "CITY": "NOT AVAILABLE", "STATE": "TX", "LATITUDE": 32.4284787070001, "LONGITUDE": -97.0528240529999, "LINES": 3}}, {"type": "Feature", "geometry": {"type": "Point", "coordinates": [-95.53501152066514, 29.940024858860227]}, "properties": {"NAME": "UNKNOWN25773", "MAX_VOLTAG": 345, "MIN_VOLTAG": 345, "CITY": "NOT AVAILABLE", "STATE": "TX", "LATITUDE": 29.9400248590001, "LONGITUDE": -95.5350115209999, "LINES": 6}}, {"type": "Feature", "geometry": {"type": "Point", "coordinates": [-99.18069972281393, 34.082279970943944]}, "properties": {"NAME": "UNKNOWN25801", "MAX_VOLTAG": 345, "MIN_VOLTAG": 345, "CITY": "NOT AVAILABLE", "STATE": "TX", "LATITUDE": 34.082279971, "LONGITUDE": -99.180699723, "LINES": 5}}, {"type": "Feature", "geometry": {"type": "Point", "coordinates": [-97.95293677321348, 33.102684973232954]}, "properties": {"NAME": "UNKNOWN25808", "MAX_VOLTAG": 345, "MIN_VOLTAG": 345, "CITY": "NOT AVAILABLE", "STATE": "TX", "LATITUDE": 33.1026849730001, "LONGITUDE": -97.952936773, "LINES": 3}}, {"type": "Feature", "geometry": {"type": "Point", "coordinates": [-97.91029407121437, 33.056148790434406]}, "properties": {"NAME": "UNKNOWN25809", "MAX_VOLTAG": 345, "MIN_VOLTAG": 345, "CITY": "NOT AVAILABLE", "STATE": "TX", "LATITUDE": 33.0561487900001, "LONGITUDE": -97.910294071, "LINES": 10}}, {"type": "Feature", "geometry": {"type": "Point", "coordinates": [-97.26156344579636, 32.991930774285834]}, "properties": {"NAME": "UNKNOWN25811", "MAX_VOLTAG": 345, "MIN_VOLTAG": 345, "CITY": "PONDER", "STATE": "TX", "LATITUDE": 32.991930774, "LONGITUDE": -97.261563446, "LINES": 6}}, {"type": "Feature", "geometry": {"type": "Point", "coordinates": [-97.21917905426989, 33.17576662742795]}, "properties": {"NAME": "UNKNOWN25813", "MAX_VOLTAG": 345, "MIN_VOLTAG": 345, "CITY": "ROANOKE", "STATE": "TX", "LATITUDE": 33.175766627, "LONGITUDE": -97.2191790539999, "LINES": 2}}, {"type": "Feature", "geometry": {"type": "Point", "coordinates": [-97.00970987161327, 33.066024702677964]}, "properties": {"NAME": "UNKNOWN25829", "MAX_VOLTAG": 345, "MIN_VOLTAG": 345, "CITY": "LEWISVILLE", "STATE": "TX", "LATITUDE": 33.066024703, "LONGITUDE": -97.009709872, "LINES": 4}}, {"type": "Feature", "geometry": {"type": "Point", "coordinates": [-96.99219591920627, 32.90806971294694]}, "properties": {"NAME": "UNKNOWN25835", "MAX_VOLTAG": 345, "MIN_VOLTAG": 345, "CITY": "NOT AVAILABLE", "STATE": "TX", "LATITUDE": 32.908069713, "LONGITUDE": -96.992195919, "LINES": 2}}, {"type": "Feature", "geometry": {"type": "Point", "coordinates": [-96.93850211587988, 32.98446137589184]}, "properties": {"NAME": "UNKNOWN25839", "MAX_VOLTAG": 345, "MIN_VOLTAG": 345, "CITY": "NOT AVAILABLE", "STATE": "TX", "LATITUDE": 32.9844613760001, "LONGITUDE": -96.9385021159999, "LINES": 6}}, {"type": "Feature", "geometry": {"type": "Point", "coordinates": [-96.80998453395904, 33.198959636677955]}, "properties": {"NAME": "UNKNOWN25862", "MAX_VOLTAG": 345, "MIN_VOLTAG": 345, "CITY": "DALLAS", "STATE": "TX", "LATITUDE": 33.198959637, "LONGITUDE": -96.809984534, "LINES": 3}}, {"type": "Feature", "geometry": {"type": "Point", "coordinates": [-96.80639517239928, 33.061280717730995]}, "properties": {"NAME": "UNKNOWN25864", "MAX_VOLTAG": 345, "MIN_VOLTAG": 345, "CITY": "DALLAS", "STATE": "TX", "LATITUDE": 33.061280718, "LONGITUDE": -96.806395172, "LINES": 4}}, {"type": "Feature", "geometry": {"type": "Point", "coordinates": [-96.77733486291356, 33.01276180231537]}, "properties": {"NAME": "UNKNOWN25869", "MAX_VOLTAG": 345, "MIN_VOLTAG": 345, "CITY": "PLANO", "STATE": "TX", "LATITUDE": 33.0127618020001, "LONGITUDE": -96.777334863, "LINES": 2}}, {"type": "Feature", "geometry": {"type": "Point", "coordinates": [-96.70032794497865, 33.060094545227116]}, "properties": {"NAME": "UNKNOWN25916", "MAX_VOLTAG": 345, "MIN_VOLTAG": 345, "CITY": "RICHARDSON", "STATE": "TX", "LATITUDE": 33.060094545, "LONGITUDE": -96.700327945, "LINES": 4}}, {"type": "Feature", "geometry": {"type": "Point", "coordinates": [-96.61207561100059, 32.957765721311034]}, "properties": {"NAME": "UNKNOWN25924", "MAX_VOLTAG": 345, "MIN_VOLTAG": 345, "CITY": "ROWLETT", "STATE": "TX", "LATITUDE": 32.957765721, "LONGITUDE": -96.612075611, "LINES": 6}}, {"type": "Feature", "geometry": {"type": "Point", "coordinates": [-96.35077419197535, 32.96925161966658]}, "properties": {"NAME": "UNKNOWN25930", "MAX_VOLTAG": 345, "MIN_VOLTAG": 345, "CITY": "NOT AVAILABLE", "STATE": "TX", "LATITUDE": 32.9692516200001, "LONGITUDE": -96.350774192, "LINES": 12}}, {"type": "Feature", "geometry": {"type": "Point", "coordinates": [-96.33793821427713, 33.19071182469099]}, "properties": {"NAME": "UNKNOWN25931", "MAX_VOLTAG": 345, "MIN_VOLTAG": 345, "CITY": "NOT AVAILABLE", "STATE": "TX", "LATITUDE": 33.1907118250001, "LONGITUDE": -96.337938214, "LINES": 6}}, {"type": "Feature", "geometry": {"type": "Point", "coordinates": [-97.6763896826377, 32.806133176904666]}, "properties": {"NAME": "UNKNOWN25932", "MAX_VOLTAG": 345, "MIN_VOLTAG": 345, "CITY": "NOT AVAILABLE", "STATE": "TX", "LATITUDE": 32.806133177, "LONGITUDE": -97.676389683, "LINES": 11}}, {"type": "Feature", "geometry": {"type": "Point", "coordinates": [-97.43995883493227, 32.59566439059921]}, "properties": {"NAME": "UNKNOWN25935", "MAX_VOLTAG": 345, "MIN_VOLTAG": 345, "CITY": "FORT WORTH", "STATE": "TX", "LATITUDE": 32.5956643910001, "LONGITUDE": -97.439958835, "LINES": 4}}, {"type": "Feature", "geometry": {"type": "Point", "coordinates": [-97.25157128268853, 32.64004343075976]}, "properties": {"NAME": "UNKNOWN25942", "MAX_VOLTAG": 345, "MIN_VOLTAG": 345, "CITY": "NOT AVAILABLE", "STATE": "TX", "LATITUDE": 32.640043431, "LONGITUDE": -97.251571283, "LINES": 8}}, {"type": "Feature", "geometry": {"type": "Point", "coordinates": [-97.21375711629787, 32.63679997004266]}, "properties": {"NAME": "UNKNOWN25943", "MAX_VOLTAG": 345, "MIN_VOLTAG": 345, "CITY": "MANSFIELD", "STATE": "TX", "LATITUDE": 32.63679997, "LONGITUDE": -97.213757116, "LINES": 2}}, {"type": "Feature", "geometry": {"type": "Point", "coordinates": [-97.08078282886441, 32.60510926228267]}, "properties": {"NAME": "UNKNOWN25945", "MAX_VOLTAG": 345, "MIN_VOLTAG": 345, "CITY": "NOT AVAILABLE", "STATE": "TX", "LATITUDE": 32.605109262, "LONGITUDE": -97.080782829, "LINES": 4}}, {"type": "Feature", "geometry": {"type": "Point", "coordinates": [-97.07730420982136, 32.55133190024708]}, "properties": {"NAME": "UNKNOWN25946", "MAX_VOLTAG": 345, "MIN_VOLTAG": 345, "CITY": "ARLINGTON", "STATE": "TX", "LATITUDE": 32.5513319, "LONGITUDE": -97.07730421, "LINES": 4}}, {"type": "Feature", "geometry": {"type": "Point", "coordinates": [-97.02539778657854, 32.81478991602188]}, "properties": {"NAME": "UNKNOWN25955", "MAX_VOLTAG": 345, "MIN_VOLTAG": 345, "CITY": "NOT AVAILABLE", "STATE": "TX", "LATITUDE": 32.8147899160001, "LONGITUDE": -97.025397787, "LINES": 11}}, {"type": "Feature", "geometry": {"type": "Point", "coordinates": [-96.96105955085756, 32.66553337056865]}, "properties": {"NAME": "UNKNOWN25964", "MAX_VOLTAG": 345, "MIN_VOLTAG": 345, "CITY": "DALLAS", "STATE": "TX", "LATITUDE": 32.665533371, "LONGITUDE": -96.9610595509999, "LINES": 6}}, {"type": "Feature", "geometry": {"type": "Point", "coordinates": [-96.91865448481656, 32.815167938849356]}, "properties": {"NAME": "UNKNOWN25971", "MAX_VOLTAG": 345, "MIN_VOLTAG": 345, "CITY": "NOT AVAILABLE", "STATE": "TX", "LATITUDE": 32.815167939, "LONGITUDE": -96.918654485, "LINES": 4}}, {"type": "Feature", "geometry": {"type": "Point", "coordinates": [-96.8434933867104, 32.557792921206385]}, "properties": {"NAME": "UNKNOWN25982", "MAX_VOLTAG": 345, "MIN_VOLTAG": 345, "CITY": "DALLAS", "STATE": "TX", "LATITUDE": 32.557792921, "LONGITUDE": -96.843493387, "LINES": 2}}, {"type": "Feature", "geometry": {"type": "Point", "coordinates": [-96.82598883042016, 32.7776339229672]}, "properties": {"NAME": "UNKNOWN25985", "MAX_VOLTAG": 345, "MIN_VOLTAG": 345, "CITY": "DALLAS", "STATE": "TX", "LATITUDE": 32.7776339230001, "LONGITUDE": -96.82598883, "LINES": 3}}, {"type": "Feature", "geometry": {"type": "Point", "coordinates": [-96.77416914678867, 32.727861199734605]}, "properties": {"NAME": "UNKNOWN26001", "MAX_VOLTAG": 345, "MIN_VOLTAG": 345, "CITY": "DALLAS", "STATE": "TX", "LATITUDE": 32.7278612000001, "LONGITUDE": -96.774169147, "LINES": 6}}, {"type": "Feature", "geometry": {"type": "Point", "coordinates": [-96.72617835374797, 32.55854043679176]}, "properties": {"NAME": "UNKNOWN26008", "MAX_VOLTAG": 345, "MIN_VOLTAG": 345, "CITY": "NOT AVAILABLE", "STATE": "TX", "LATITUDE": 32.558540437, "LONGITUDE": -96.726178354, "LINES": 8}}, {"type": "Feature", "geometry": {"type": "Point", "coordinates": [-96.65324942332217, 32.857505206799885]}, "properties": {"NAME": "UNKNOWN26015", "MAX_VOLTAG": 345, "MIN_VOLTAG": 345, "CITY": "NOT AVAILABLE", "STATE": "TX", "LATITUDE": 32.857505207, "LONGITUDE": -96.653249423, "LINES": 2}}, {"type": "Feature", "geometry": {"type": "Point", "coordinates": [-96.53750283318914, 32.5536665789495]}, "properties": {"NAME": "UNKNOWN26027", "MAX_VOLTAG": 345, "MIN_VOLTAG": 345, "CITY": "NOT AVAILABLE", "STATE": "TX", "LATITUDE": 32.553666579, "LONGITUDE": -96.537502833, "LINES": 6}}, {"type": "Feature", "geometry": {"type": "Point", "coordinates": [-96.48688645864314, 32.75787760726581]}, "properties": {"NAME": "UNKNOWN26030", "MAX_VOLTAG": 345, "MIN_VOLTAG": 345, "CITY": "BIG SANDY", "STATE": "TX", "LATITUDE": 32.7578776070001, "LONGITUDE": -96.4868864589999, "LINES": 7}}, {"type": "Feature", "geometry": {"type": "Point", "coordinates": [-96.54625229240935, 32.673455121656616]}, "properties": {"NAME": "UNKNOWN26045", "MAX_VOLTAG": 345, "MIN_VOLTAG": 345, "CITY": "NOT AVAILABLE", "STATE": "TX", "LATITUDE": 32.6734551220001, "LONGITUDE": -96.546252292, "LINES": 2}}, {"type": "Feature", "geometry": {"type": "Point", "coordinates": [-97.48547471798383, 32.39495442480688]}, "properties": {"NAME": "UNKNOWN26048", "MAX_VOLTAG": 345, "MIN_VOLTAG": 345, "CITY": "NOT AVAILABLE", "STATE": "TX", "LATITUDE": 32.394954425, "LONGITUDE": -97.485474718, "LINES": 3}}, {"type": "Feature", "geometry": {"type": "Point", "coordinates": [-97.07277551267975, 32.44395046024562]}, "properties": {"NAME": "UNKNOWN26060", "MAX_VOLTAG": 345, "MIN_VOLTAG": 345, "CITY": "NOT AVAILABLE", "STATE": "TX", "LATITUDE": 32.4439504600001, "LONGITUDE": -97.072775513, "LINES": 13}}, {"type": "Feature", "geometry": {"type": "Point", "coordinates": [-97.6141462071817, 30.304971808202424]}, "properties": {"NAME": "UNKNOWN26129", "MAX_VOLTAG": 345, "MIN_VOLTAG": 345, "CITY": "CEDAR CREEK", "STATE": "TX", "LATITUDE": 30.3049718080001, "LONGITUDE": -97.614146207, "LINES": 10}}, {"type": "Feature", "geometry": {"type": "Point", "coordinates": [-97.54537114995856, 30.142619074310858]}, "properties": {"NAME": "UNKNOWN26132", "MAX_VOLTAG": 345, "MIN_VOLTAG": 345, "CITY": "NOT AVAILABLE", "STATE": "TX", "LATITUDE": 30.142619074, "LONGITUDE": -97.5453711499999, "LINES": 7}}, {"type": "Feature", "geometry": {"type": "Point", "coordinates": [-97.48728266286457, 30.25128598905718]}, "properties": {"NAME": "UNKNOWN26133", "MAX_VOLTAG": 345, "MIN_VOLTAG": 345, "CITY": "NOT AVAILABLE", "STATE": "TX", "LATITUDE": 30.2512859890001, "LONGITUDE": -97.487282663, "LINES": 11}}, {"type": "Feature", "geometry": {"type": "Point", "coordinates": [-97.27278723404356, 30.147751882943112]}, "properties": {"NAME": "UNKNOWN26138", "MAX_VOLTAG": 345, "MIN_VOLTAG": 345, "CITY": "NOT AVAILABLE", "STATE": "TX", "LATITUDE": 30.1477518830001, "LONGITUDE": -97.272787234, "LINES": 5}}, {"type": "Feature", "geometry": {"type": "Point", "coordinates": [-95.23438527206264, 29.717804456910187]}, "properties": {"NAME": "UNKNOWN26194", "MAX_VOLTAG": 345, "MIN_VOLTAG": 345, "CITY": "NOT AVAILABLE", "STATE": "TX", "LATITUDE": 29.7178044570001, "LONGITUDE": -95.2343852719999, "LINES": 1}}, {"type": "Feature", "geometry": {"type": "Point", "coordinates": [-95.6303581107382, 29.48281542029548]}, "properties": {"NAME": "UNKNOWN26210", "MAX_VOLTAG": 345, "MIN_VOLTAG": 345, "CITY": "NOT AVAILABLE", "STATE": "TX", "LATITUDE": 29.4828154200001, "LONGITUDE": -95.630358111, "LINES": 12}}, {"type": "Feature", "geometry": {"type": "Point", "coordinates": [-95.62409273818929, 29.48071781997146]}, "properties": {"NAME": "UNKNOWN26212", "MAX_VOLTAG": 345, "MIN_VOLTAG": 345, "CITY": "NOT AVAILABLE", "STATE": "TX", "LATITUDE": 29.4807178200001, "LONGITUDE": -95.6240927379999, "LINES": 13}}, {"type": "Feature", "geometry": {"type": "Point", "coordinates": [-95.62310769366508, 29.47423797710104]}, "properties": {"NAME": "UNKNOWN26213", "MAX_VOLTAG": 345, "MIN_VOLTAG": 345, "CITY": "NOT AVAILABLE", "STATE": "TX", "LATITUDE": 29.474237977, "LONGITUDE": -95.6231076939999, "LINES": 3}}, {"type": "Feature", "geometry": {"type": "Point", "coordinates": [-95.22694332097745, 29.720380240255906]}, "properties": {"NAME": "UNKNOWN26262", "MAX_VOLTAG": 345, "MIN_VOLTAG": 345, "CITY": "NOT AVAILABLE", "STATE": "TX", "LATITUDE": 29.7203802400001, "LONGITUDE": -95.226943321, "LINES": 7}}, {"type": "Feature", "geometry": {"type": "Point", "coordinates": [-94.9026878739462, 29.77395471433863]}, "properties": {"NAME": "UNKNOWN26305", "MAX_VOLTAG": 345, "MIN_VOLTAG": 345, "CITY": "NOT AVAILABLE", "STATE": "TX", "LATITUDE": 29.7739547140001, "LONGITUDE": -94.902687874, "LINES": 4}}, {"type": "Feature", "geometry": {"type": "Point", "coordinates": [-98.4087783492414, 29.58055905705487]}, "properties": {"NAME": "UNKNOWN26329", "MAX_VOLTAG": 345, "MIN_VOLTAG": 345, "CITY": "SAN ANTONIO", "STATE": "TX", "LATITUDE": 29.5805590570001, "LONGITUDE": -98.408778349, "LINES": 15}}, {"type": "Feature", "geometry": {"type": "Point", "coordinates": [-98.14870203077407, 29.62045998334162]}, "properties": {"NAME": "UNKNOWN26350", "MAX_VOLTAG": 345, "MIN_VOLTAG": 345, "CITY": "NOT AVAILABLE", "STATE": "TX", "LATITUDE": 29.620459983, "LONGITUDE": -98.148702031, "LINES": 11}}, {"type": "Feature", "geometry": {"type": "Point", "coordinates": [-98.01705924808579, 29.65118476076816]}, "properties": {"NAME": "UNKNOWN26365", "MAX_VOLTAG": 345, "MIN_VOLTAG": 345, "CITY": "NOT AVAILABLE", "STATE": "TX", "LATITUDE": 29.651184761, "LONGITUDE": -98.017059248, "LINES": 7}}, {"type": "Feature", "geometry": {"type": "Point", "coordinates": [-97.9998795556969, 29.46729933609555]}, "properties": {"NAME": "UNKNOWN26366", "MAX_VOLTAG": 345, "MIN_VOLTAG": 345, "CITY": "NOT AVAILABLE", "STATE": "TX", "LATITUDE": 29.4672993360001, "LONGITUDE": -97.9998795559999, "LINES": 8}}, {"type": "Feature", "geometry": {"type": "Point", "coordinates": [-97.94952062557638, 29.772607382424837]}, "properties": {"NAME": "UNKNOWN26375", "MAX_VOLTAG": 345, "MIN_VOLTAG": 345, "CITY": "NOT AVAILABLE", "STATE": "TX", "LATITUDE": 29.772607382, "LONGITUDE": -97.949520626, "LINES": 13}}, {"type": "Feature", "geometry": {"type": "Point", "coordinates": [-96.8783402508019, 29.795715348184842]}, "properties": {"NAME": "UNKNOWN26389", "MAX_VOLTAG": 345, "MIN_VOLTAG": 345, "CITY": "COLUMBUS", "STATE": "TX", "LATITUDE": 29.795715348, "LONGITUDE": -96.8783402509999, "LINES": 3}}, {"type": "Feature", "geometry": {"type": "Point", "coordinates": [-97.6742221906016, 30.00537834283631]}, "properties": {"NAME": "UNKNOWN26414", "MAX_VOLTAG": 345, "MIN_VOLTAG": 345, "CITY": "LOCKHART", "STATE": "TX", "LATITUDE": 30.0053783430001, "LONGITUDE": -97.674222191, "LINES": 10}}, {"type": "Feature", "geometry": {"type": "Point", "coordinates": [-96.75617926416169, 29.91356297495139]}, "properties": {"NAME": "UNKNOWN26419", "MAX_VOLTAG": 345, "MIN_VOLTAG": 345, "CITY": "NOT AVAILABLE", "STATE": "TX", "LATITUDE": 29.913562975, "LONGITUDE": -96.756179264, "LINES": 4}}, {"type": "Feature", "geometry": {"type": "Point", "coordinates": [-96.75519019876862, 29.918292381887966]}, "properties": {"NAME": "UNKNOWN26420", "MAX_VOLTAG": 345, "MIN_VOLTAG": 345, "CITY": "NOT AVAILABLE", "STATE": "TX", "LATITUDE": 29.9182923820001, "LONGITUDE": -96.755190199, "LINES": 6}}, {"type": "Feature", "geometry": {"type": "Point", "coordinates": [-95.21934398493693, 29.81844484775155]}, "properties": {"NAME": "UNKNOWN26439", "MAX_VOLTAG": 345, "MIN_VOLTAG": 345, "CITY": "NOT AVAILABLE", "STATE": "TX", "LATITUDE": 29.8184448480001, "LONGITUDE": -95.219343985, "LINES": 21}}, {"type": "Feature", "geometry": {"type": "Point", "coordinates": [-95.12347152618997, 29.8366478391265]}, "properties": {"NAME": "UNKNOWN26488", "MAX_VOLTAG": 345, "MIN_VOLTAG": 345, "CITY": "GROVES", "STATE": "TX", "LATITUDE": 29.8366478390001, "LONGITUDE": -95.1234715259999, "LINES": 3}}, {"type": "Feature", "geometry": {"type": "Point", "coordinates": [-96.68776512286212, 29.96283441697483]}, "properties": {"NAME": "UNKNOWN26507", "MAX_VOLTAG": 345, "MIN_VOLTAG": 345, "CITY": "NOT AVAILABLE", "STATE": "TX", "LATITUDE": 29.9628344170001, "LONGITUDE": -96.687765123, "LINES": 8}}, {"type": "Feature", "geometry": {"type": "Point", "coordinates": [-96.4254556960235, 30.11118112460929]}, "properties": {"NAME": "UNKNOWN26509", "MAX_VOLTAG": 345, "MIN_VOLTAG": 345, "CITY": "NEW ULM", "STATE": "TX", "LATITUDE": 30.111181125, "LONGITUDE": -96.425455696, "LINES": 7}}, {"type": "Feature", "geometry": {"type": "Point", "coordinates": [-95.77807785870618, 29.91003561984803]}, "properties": {"NAME": "UNKNOWN26519", "MAX_VOLTAG": 345, "MIN_VOLTAG": 345, "CITY": "KATY", "STATE": "TX", "LATITUDE": 29.91003562, "LONGITUDE": -95.778077859, "LINES": 6}}, {"type": "Feature", "geometry": {"type": "Point", "coordinates": [-95.71732737116122, 29.673128099981852]}, "properties": {"NAME": "UNKNOWN26523", "MAX_VOLTAG": 345, "MIN_VOLTAG": 345, "CITY": "RICHMOND", "STATE": "TX", "LATITUDE": 29.6731281, "LONGITUDE": -95.717327371, "LINES": 10}}, {"type": "Feature", "geometry": {"type": "Point", "coordinates": [-96.37331966956708, 33.6139452720567]}, "properties": {"NAME": "UNKNOWN26537", "MAX_VOLTAG": 345, "MIN_VOLTAG": 345, "CITY": "NOT AVAILABLE", "STATE": "TX", "LATITUDE": 33.613945272, "LONGITUDE": -96.3733196699999, "LINES": 4}}, {"type": "Feature", "geometry": {"type": "Point", "coordinates": [-96.3703317880815, 33.627467212142164]}, "properties": {"NAME": "UNKNOWN26538", "MAX_VOLTAG": 345, "MIN_VOLTAG": 345, "CITY": "NOT AVAILABLE", "STATE": "TX", "LATITUDE": 33.6274672120001, "LONGITUDE": -96.370331788, "LINES": 6}}, {"type": "Feature", "geometry": {"type": "Point", "coordinates": [-96.35767351372164, 33.63247063171434]}, "properties": {"NAME": "UNKNOWN26540", "MAX_VOLTAG": 345, "MIN_VOLTAG": 345, "CITY": "BONHAM", "STATE": "TX", "LATITUDE": 33.632470632, "LONGITUDE": -96.3576735139999, "LINES": 3}}, {"type": "Feature", "geometry": {"type": "Point", "coordinates": [-98.10680310767725, 33.27719329373559]}, "properties": {"NAME": "UNKNOWN26545", "MAX_VOLTAG": 345, "MIN_VOLTAG": 345, "CITY": "KRUGERVILLE", "STATE": "TX", "LATITUDE": 33.277193294, "LONGITUDE": -98.106803108, "LINES": 5}}, {"type": "Feature", "geometry": {"type": "Point", "coordinates": [-96.63923416282631, 33.317891423150684]}, "properties": {"NAME": "UNKNOWN26552", "MAX_VOLTAG": 345, "MIN_VOLTAG": 345, "CITY": "ANNA", "STATE": "TX", "LATITUDE": 33.317891423, "LONGITUDE": -96.639234163, "LINES": 8}}, {"type": "Feature", "geometry": {"type": "Point", "coordinates": [-97.72295178209902, 31.038983748401336]}, "properties": {"NAME": "UNKNOWN26593", "MAX_VOLTAG": 345, "MIN_VOLTAG": 345, "CITY": "AUSTIN", "STATE": "TX", "LATITUDE": 31.0389837480001, "LONGITUDE": -97.7229517819999, "LINES": 8}}, {"type": "Feature", "geometry": {"type": "Point", "coordinates": [-97.57407470018723, 30.409944289997043]}, "properties": {"NAME": "UNKNOWN26618", "MAX_VOLTAG": 345, "MIN_VOLTAG": 345, "CITY": "JARRELL", "STATE": "TX", "LATITUDE": 30.4099442900001, "LONGITUDE": -97.5740747, "LINES": 6}}, {"type": "Feature", "geometry": {"type": "Point", "coordinates": [-97.56134857197895, 30.551169742989316]}, "properties": {"NAME": "UNKNOWN26620", "MAX_VOLTAG": 345, "MIN_VOLTAG": 345, "CITY": "SALADO", "STATE": "TX", "LATITUDE": 30.5511697430001, "LONGITUDE": -97.561348572, "LINES": 7}}, {"type": "Feature", "geometry": {"type": "Point", "coordinates": [-97.51111933578869, 30.972125925271314]}, "properties": {"NAME": "UNKNOWN26622", "MAX_VOLTAG": 345, "MIN_VOLTAG": 345, "CITY": "TAYLOR", "STATE": "TX", "LATITUDE": 30.9721259250001, "LONGITUDE": -97.511119336, "LINES": 5}}, {"type": "Feature", "geometry": {"type": "Point", "coordinates": [-97.30778035667811, 31.079076998304856]}, "properties": {"NAME": "UNKNOWN26642", "MAX_VOLTAG": 345, "MIN_VOLTAG": 345, "CITY": "NOT AVAILABLE", "STATE": "TX", "LATITUDE": 31.0790769980001, "LONGITUDE": -97.307780357, "LINES": 8}}, {"type": "Feature", "geometry": {"type": "Point", "coordinates": [-97.26106447134822, 31.1296391824024]}, "properties": {"NAME": "UNKNOWN26644", "MAX_VOLTAG": 345, "MIN_VOLTAG": 345, "CITY": "EDDY", "STATE": "TX", "LATITUDE": 31.1296391820001, "LONGITUDE": -97.2610644709999, "LINES": 6}}, {"type": "Feature", "geometry": {"type": "Point", "coordinates": [-97.10021944726964, 31.699751858761317]}, "properties": {"NAME": "UNKNOWN26661", "MAX_VOLTAG": 345, "MIN_VOLTAG": 345, "CITY": "ELM MOTT", "STATE": "TX", "LATITUDE": 31.6997518590001, "LONGITUDE": -97.100219447, "LINES": 2}}, {"type": "Feature", "geometry": {"type": "Point", "coordinates": [-97.07680655557806, 30.57766496566569]}, "properties": {"NAME": "UNKNOWN26663", "MAX_VOLTAG": 345, "MIN_VOLTAG": 345, "CITY": "WEST", "STATE": "TX", "LATITUDE": 30.577664966, "LONGITUDE": -97.076806556, "LINES": 6}}, {"type": "Feature", "geometry": {"type": "Point", "coordinates": [-96.98483135658182, 31.46812642779247]}, "properties": {"NAME": "UNKNOWN26668", "MAX_VOLTAG": 345, "MIN_VOLTAG": 345, "CITY": "NOT AVAILABLE", "STATE": "TX", "LATITUDE": 31.4681264280001, "LONGITUDE": -96.984831357, "LINES": 6}}, {"type": "Feature", "geometry": {"type": "Point", "coordinates": [-96.96447265608816, 31.574745391986312]}, "properties": {"NAME": "UNKNOWN26669", "MAX_VOLTAG": 345, "MIN_VOLTAG": 345, "CITY": "NOT AVAILABLE", "STATE": "TX", "LATITUDE": 31.5747453920001, "LONGITUDE": -96.9644726559999, "LINES": 6}}, {"type": "Feature", "geometry": {"type": "Point", "coordinates": [-96.96068082925683, 31.473507803642292]}, "properties": {"NAME": "UNKNOWN26670", "MAX_VOLTAG": 345, "MIN_VOLTAG": 345, "CITY": "NOT AVAILABLE", "STATE": "TX", "LATITUDE": 31.4735078040001, "LONGITUDE": -96.960680829, "LINES": 3}}, {"type": "Feature", "geometry": {"type": "Point", "coordinates": [-96.48436972388362, 31.185541234140715]}, "properties": {"NAME": "UNKNOWN26691", "MAX_VOLTAG": 345, "MIN_VOLTAG": 345, "CITY": "BREMOND", "STATE": "TX", "LATITUDE": 31.185541234, "LONGITUDE": -96.484369724, "LINES": 8}}, {"type": "Feature", "geometry": {"type": "Point", "coordinates": [-96.2589023790415, 30.85888112586332]}, "properties": {"NAME": "UNKNOWN26702", "MAX_VOLTAG": 345, "MIN_VOLTAG": 345, "CITY": "NOT AVAILABLE", "STATE": "TX", "LATITUDE": 30.858881126, "LONGITUDE": -96.2589023789999, "LINES": 2}}, {"type": "Feature", "geometry": {"type": "Point", "coordinates": [-96.24699812326475, 31.424178511828927]}, "properties": {"NAME": "UNKNOWN26703", "MAX_VOLTAG": 345, "MIN_VOLTAG": 345, "CITY": "NORMANGEE", "STATE": "TX", "LATITUDE": 31.424178512, "LONGITUDE": -96.246998123, "LINES": 7}}, {"type": "Feature", "geometry": {"type": "Point", "coordinates": [-96.13280323867849, 31.371319035645058]}, "properties": {"NAME": "UNKNOWN26707", "MAX_VOLTAG": 345, "MIN_VOLTAG": 345, "CITY": "IOLA", "STATE": "TX", "LATITUDE": 31.371319036, "LONGITUDE": -96.1328032389999, "LINES": 8}}, {"type": "Feature", "geometry": {"type": "Point", "coordinates": [-96.08180196418925, 30.622511971650226]}, "properties": {"NAME": "UNKNOWN26712", "MAX_VOLTAG": 345, "MIN_VOLTAG": 345, "CITY": "NORTH ZULCH", "STATE": "TX", "LATITUDE": 30.622511972, "LONGITUDE": -96.081801964, "LINES": 9}}, {"type": "Feature", "geometry": {"type": "Point", "coordinates": [-95.97338141781813, 30.661314090073233]}, "properties": {"NAME": "UNKNOWN26716", "MAX_VOLTAG": 345, "MIN_VOLTAG": 345, "CITY": "BEDIAS", "STATE": "TX", "LATITUDE": 30.6613140900001, "LONGITUDE": -95.973381418, "LINES": 8}}, {"type": "Feature", "geometry": {"type": "Point", "coordinates": [-95.91913321392667, 30.593908909868333]}, "properties": {"NAME": "UNKNOWN26718", "MAX_VOLTAG": 345, "MIN_VOLTAG": 345, "CITY": "NOT AVAILABLE", "STATE": "TX", "LATITUDE": 30.59390891, "LONGITUDE": -95.9191332139999, "LINES": 4}}, {"type": "Feature", "geometry": {"type": "Point", "coordinates": [-99.77397150937765, 33.94439703719354]}, "properties": {"NAME": "UNKNOWN26726", "MAX_VOLTAG": 345, "MIN_VOLTAG": 345, "CITY": "NOT AVAILABLE", "STATE": "TX", "LATITUDE": 33.944397037, "LONGITUDE": -99.773971509, "LINES": 8}}, {"type": "Feature", "geometry": {"type": "Point", "coordinates": [-99.14502350213286, 34.08424677386955]}, "properties": {"NAME": "UNKNOWN26733", "MAX_VOLTAG": 345, "MIN_VOLTAG": 345, "CITY": "HOLLIDAY", "STATE": "TX", "LATITUDE": 34.0842467740001, "LONGITUDE": -99.145023502, "LINES": 11}}, {"type": "Feature", "geometry": {"type": "Point", "coordinates": [-98.60080772859374, 33.81032454534153]}, "properties": {"NAME": "UNKNOWN26735", "MAX_VOLTAG": 345, "MIN_VOLTAG": 345, "CITY": "WICHITA FALLS", "STATE": "TX", "LATITUDE": 33.8103245450001, "LONGITUDE": -98.6008077289999, "LINES": 10}}, {"type": "Feature", "geometry": {"type": "Point", "coordinates": [-98.42937840798709, 33.88649831424584]}, "properties": {"NAME": "UNKNOWN26737", "MAX_VOLTAG": 345, "MIN_VOLTAG": 345, "CITY": "DEL RIO", "STATE": "TX", "LATITUDE": 33.8864983140001, "LONGITUDE": -98.429378408, "LINES": 4}}, {"type": "Feature", "geometry": {"type": "Point", "coordinates": [-98.47430689704561, 28.704005607672684]}, "properties": {"NAME": "UNKNOWN26809", "MAX_VOLTAG": 345, "MIN_VOLTAG": 345, "CITY": "NOT AVAILABLE", "STATE": "TX", "LATITUDE": 28.704005608, "LONGITUDE": -98.474306897, "LINES": 9}}, {"type": "Feature", "geometry": {"type": "Point", "coordinates": [-98.38427399624788, 29.25822348632488]}, "properties": {"NAME": "UNKNOWN26817", "MAX_VOLTAG": 345, "MIN_VOLTAG": 345, "CITY": "NOT AVAILABLE", "STATE": "TX", "LATITUDE": 29.2582234860001, "LONGITUDE": -98.384273996, "LINES": 3}}, {"type": "Feature", "geometry": {"type": "Point", "coordinates": [-98.32037574394536, 29.312417315406833]}, "properties": {"NAME": "UNKNOWN26822", "MAX_VOLTAG": 345, "MIN_VOLTAG": 345, "CITY": "SAN ANTONIO", "STATE": "TX", "LATITUDE": 29.3124173150001, "LONGITUDE": -98.320375744, "LINES": 6}}, {"type": "Feature", "geometry": {"type": "Point", "coordinates": [-98.02372093657192, 28.73986133123549]}, "properties": {"NAME": "UNKNOWN26831", "MAX_VOLTAG": 345, "MIN_VOLTAG": 345, "CITY": "BISHOP", "STATE": "TX", "LATITUDE": 28.739861331, "LONGITUDE": -98.023720937, "LINES": 5}}, {"type": "Feature", "geometry": {"type": "Point", "coordinates": [-97.66883775615747, 27.560547944032464]}, "properties": {"NAME": "UNKNOWN26835", "MAX_VOLTAG": 345, "MIN_VOLTAG": 345, "CITY": "ROBSTOWN", "STATE": "TX", "LATITUDE": 27.5605479440001, "LONGITUDE": -97.668837756, "LINES": 2}}, {"type": "Feature", "geometry": {"type": "Point", "coordinates": [-97.61502718665531, 27.842670353753874]}, "properties": {"NAME": "UNKNOWN26837", "MAX_VOLTAG": 345, "MIN_VOLTAG": 345, "CITY": "CORPUS CHRISTI", "STATE": "TX", "LATITUDE": 27.8426703540001, "LONGITUDE": -97.615027187, "LINES": 6}}, {"type": "Feature", "geometry": {"type": "Point", "coordinates": [-97.36056181937244, 27.93580401804104]}, "properties": {"NAME": "UNKNOWN26851", "MAX_VOLTAG": 345, "MIN_VOLTAG": 345, "CITY": "CORPUS CHRISTI", "STATE": "TX", "LATITUDE": 27.9358040180001, "LONGITUDE": -97.3605618189999, "LINES": 9}}, {"type": "Feature", "geometry": {"type": "Point", "coordinates": [-97.21257960696323, 28.71682190190927]}, "properties": {"NAME": "UNKNOWN26861", "MAX_VOLTAG": 345, "MIN_VOLTAG": 345, "CITY": "VICTORIA", "STATE": "TX", "LATITUDE": 28.716821902, "LONGITUDE": -97.212579607, "LINES": 6}}, {"type": "Feature", "geometry": {"type": "Point", "coordinates": [-96.05055969887098, 28.79946757177106]}, "properties": {"NAME": "UNKNOWN26897", "MAX_VOLTAG": 345, "MIN_VOLTAG": 345, "CITY": "NOT AVAILABLE", "STATE": "TX", "LATITUDE": 28.799467572, "LONGITUDE": -96.050559699, "LINES": 11}}, {"type": "Feature", "geometry": {"type": "Point", "coordinates": [-96.2360452359988, 29.029542467211172]}, "properties": {"NAME": "UNKNOWN26910", "MAX_VOLTAG": 345, "MIN_VOLTAG": 345, "CITY": "NOT AVAILABLE", "STATE": "TX", "LATITUDE": 29.0295424670001, "LONGITUDE": -96.2360452359999, "LINES": 5}}, {"type": "Feature", "geometry": {"type": "Point", "coordinates": [-97.7743877421006, 27.092027363372154]}, "properties": {"NAME": "UNKNOWN26918", "MAX_VOLTAG": 345, "MIN_VOLTAG": 345, "CITY": "NOT AVAILABLE", "STATE": "TX", "LATITUDE": 27.0920273630001, "LONGITUDE": -97.774387742, "LINES": 3}}, {"type": "Feature", "geometry": {"type": "Point", "coordinates": [-97.64277640240903, 26.146583468352446]}, "properties": {"NAME": "UNKNOWN26921", "MAX_VOLTAG": 345, "MIN_VOLTAG": 345, "CITY": "NOT AVAILABLE", "STATE": "TX", "LATITUDE": 26.1465834680001, "LONGITUDE": -97.642776402, "LINES": 2}}, {"type": "Feature", "geometry": {"type": "Point", "coordinates": [-97.61340835571099, 26.27748409001879]}, "properties": {"NAME": "UNKNOWN26923", "MAX_VOLTAG": 345, "MIN_VOLTAG": 345, "CITY": "NOT AVAILABLE", "STATE": "TX", "LATITUDE": 26.27748409, "LONGITUDE": -97.613408356, "LINES": 5}}, {"type": "Feature", "geometry": {"type": "Point", "coordinates": [-97.58383457380648, 27.002726059260283]}, "properties": {"NAME": "UNKNOWN26924", "MAX_VOLTAG": 345, "MIN_VOLTAG": 345, "CITY": "NOT AVAILABLE", "STATE": "TX", "LATITUDE": 27.0027260590001, "LONGITUDE": -97.583834574, "LINES": 3}}, {"type": "Feature", "geometry": {"type": "Point", "coordinates": [-97.52877941363897, 27.10321841000166]}, "properties": {"NAME": "UNKNOWN26925", "MAX_VOLTAG": 345, "MIN_VOLTAG": 345, "CITY": "BROWNSVILLE", "STATE": "TX", "LATITUDE": 27.1032184100001, "LONGITUDE": -97.528779414, "LINES": 1}}, {"type": "Feature", "geometry": {"type": "Point", "coordinates": [-102.49550768683025, 31.813036899233566]}, "properties": {"NAME": "UNKNOWN26941", "MAX_VOLTAG": 345, "MIN_VOLTAG": 345, "CITY": "ODESSA", "STATE": "TX", "LATITUDE": 31.8130368990001, "LONGITUDE": -102.495507687, "LINES": 9}}, {"type": "Feature", "geometry": {"type": "Point", "coordinates": [-102.32950875242693, 31.83622992736929]}, "properties": {"NAME": "UNKNOWN26947", "MAX_VOLTAG": 345, "MIN_VOLTAG": 345, "CITY": "NOT AVAILABLE", "STATE": "TX", "LATITUDE": 31.836229927, "LONGITUDE": -102.329508752, "LINES": 11}}, {"type": "Feature", "geometry": {"type": "Point", "coordinates": [-102.3274019709242, 31.838632639784578]}, "properties": {"NAME": "UNKNOWN26948", "MAX_VOLTAG": 345, "MIN_VOLTAG": 345, "CITY": "NOT AVAILABLE", "STATE": "TX", "LATITUDE": 31.8386326400001, "LONGITUDE": -102.327401971, "LINES": 3}}, {"type": "Feature", "geometry": {"type": "Point", "coordinates": [-102.32610320509878, 31.833916894449146]}, "properties": {"NAME": "UNKNOWN26949", "MAX_VOLTAG": 345, "MIN_VOLTAG": 345, "CITY": "NOT AVAILABLE", "STATE": "TX", "LATITUDE": 31.833916894, "LONGITUDE": -102.326103205, "LINES": 5}}, {"type": "Feature", "geometry": {"type": "Point", "coordinates": [-102.31627043783038, 31.840000139894585]}, "properties": {"NAME": "UNKNOWN26950", "MAX_VOLTAG": 345, "MIN_VOLTAG": 345, "CITY": "ODESSA", "STATE": "TX", "LATITUDE": 31.84000014, "LONGITUDE": -102.316270438, "LINES": 3}}, {"type": "Feature", "geometry": {"type": "Point", "coordinates": [-102.05225506362024, 32.01993399026151]}, "properties": {"NAME": "UNKNOWN26954", "MAX_VOLTAG": 345, "MIN_VOLTAG": 345, "CITY": "NOT AVAILABLE", "STATE": "TX", "LATITUDE": 32.01993399, "LONGITUDE": -102.052255064, "LINES": 5}}, {"type": "Feature", "geometry": {"type": "Point", "coordinates": [-102.05079518514964, 32.02025885056554]}, "properties": {"NAME": "UNKNOWN26955", "MAX_VOLTAG": 345, "MIN_VOLTAG": 345, "CITY": "NOT AVAILABLE", "STATE": "TX", "LATITUDE": 32.0202588510001, "LONGITUDE": -102.050795185, "LINES": 3}}, {"type": "Feature", "geometry": {"type": "Point", "coordinates": [-101.45233448934516, 32.10030236356329]}, "properties": {"NAME": "UNKNOWN26956", "MAX_VOLTAG": 345, "MIN_VOLTAG": 345, "CITY": "NOT AVAILABLE", "STATE": "TX", "LATITUDE": 32.1003023640001, "LONGITUDE": -101.452334489, "LINES": 6}}, {"type": "Feature", "geometry": {"type": "Point", "coordinates": [-101.42289534584353, 32.27514012461711]}, "properties": {"NAME": "UNKNOWN26957", "MAX_VOLTAG": 345, "MIN_VOLTAG": 345, "CITY": "NOT AVAILABLE", "STATE": "TX", "LATITUDE": 32.2751401250001, "LONGITUDE": -101.422895346, "LINES": 4}}, {"type": "Feature", "geometry": {"type": "Point", "coordinates": [-100.91610722986474, 32.33412680600736]}, "properties": {"NAME": "UNKNOWN26964", "MAX_VOLTAG": 345, "MIN_VOLTAG": 345, "CITY": "COLORADO CITY", "STATE": "TX", "LATITUDE": 32.334126806, "LONGITUDE": -100.91610723, "LINES": 11}}, {"type": "Feature", "geometry": {"type": "Point", "coordinates": [-100.83018429556876, 31.939326149082547]}, "properties": {"NAME": "UNKNOWN26969", "MAX_VOLTAG": 345, "MIN_VOLTAG": 345, "CITY": "NOT AVAILABLE", "STATE": "TX", "LATITUDE": 31.9393261490001, "LONGITUDE": -100.830184296, "LINES": 2}}, {"type": "Feature", "geometry": {"type": "Point", "coordinates": [-100.77723186096159, 31.86937953693615]}, "properties": {"NAME": "UNKNOWN26972", "MAX_VOLTAG": 345, "MIN_VOLTAG": 345, "CITY": "ROSCOE", "STATE": "TX", "LATITUDE": 31.869379537, "LONGITUDE": -100.777231861, "LINES": 6}}, {"type": "Feature", "geometry": {"type": "Point", "coordinates": [-100.02305648017239, 32.1965144620728]}, "properties": {"NAME": "UNKNOWN26983", "MAX_VOLTAG": 345, "MIN_VOLTAG": 345, "CITY": "NOT AVAILABLE", "STATE": "TX", "LATITUDE": 32.196514462, "LONGITUDE": -100.02305648, "LINES": 10}}, {"type": "Feature", "geometry": {"type": "Point", "coordinates": [-98.55328970735405, 31.86895999600705]}, "properties": {"NAME": "UNKNOWN26988", "MAX_VOLTAG": 345, "MIN_VOLTAG": 345, "CITY": "NOT AVAILABLE", "STATE": "TX", "LATITUDE": 31.8689599960001, "LONGITUDE": -98.553289707, "LINES": 2}}, {"type": "Feature", "geometry": {"type": "Point", "coordinates": [-97.7898611031074, 32.29777314671338]}, "properties": {"NAME": "UNKNOWN26989", "MAX_VOLTAG": 345, "MIN_VOLTAG": 345, "CITY": "NOT AVAILABLE", "STATE": "TX", "LATITUDE": 32.297773147, "LONGITUDE": -97.789861103, "LINES": 8}}, {"type": "Feature", "geometry": {"type": "Point", "coordinates": [-97.73213129892025, 32.33551375665462]}, "properties": {"NAME": "UNKNOWN26990", "MAX_VOLTAG": 345, "MIN_VOLTAG": 345, "CITY": "NOT AVAILABLE", "STATE": "TX", "LATITUDE": 32.3355137570001, "LONGITUDE": -97.7321312989999, "LINES": 3}}, {"type": "Feature", "geometry": {"type": "Point", "coordinates": [-97.36521574800832, 31.860586295121493]}, "properties": {"NAME": "UNKNOWN26994", "MAX_VOLTAG": 345, "MIN_VOLTAG": 345, "CITY": "CLIFTON", "STATE": "TX", "LATITUDE": 31.8605862950001, "LONGITUDE": -97.365215748, "LINES": 2}}, {"type": "Feature", "geometry": {"type": "Point", "coordinates": [-96.11335001788899, 31.89015333031199]}, "properties": {"NAME": "UNKNOWN27010", "MAX_VOLTAG": 345, "MIN_VOLTAG": 345, "CITY": "NOT AVAILABLE", "STATE": "TX", "LATITUDE": 31.89015333, "LONGITUDE": -96.1133500179999, "LINES": 5}}, {"type": "Feature", "geometry": {"type": "Point", "coordinates": [-96.10574552603515, 32.12631838158808]}, "properties": {"NAME": "UNKNOWN27011", "MAX_VOLTAG": 345, "MIN_VOLTAG": 345, "CITY": "NOT AVAILABLE", "STATE": "TX", "LATITUDE": 32.1263183820001, "LONGITUDE": -96.105745526, "LINES": 7}}, {"type": "Feature", "geometry": {"type": "Point", "coordinates": [-96.05745271906767, 31.81953118341744]}, "properties": {"NAME": "UNKNOWN27012", "MAX_VOLTAG": 345, "MIN_VOLTAG": 345, "CITY": "NOT AVAILABLE", "STATE": "TX", "LATITUDE": 31.819531183, "LONGITUDE": -96.057452719, "LINES": 6}}, {"type": "Feature", "geometry": {"type": "Point", "coordinates": [-95.94928117968266, 32.23471037808156]}, "properties": {"NAME": "UNKNOWN27013", "MAX_VOLTAG": 345, "MIN_VOLTAG": 345, "CITY": "NOT AVAILABLE", "STATE": "TX", "LATITUDE": 32.234710378, "LONGITUDE": -95.94928118, "LINES": 2}}, {"type": "Feature", "geometry": {"type": "Point", "coordinates": [-99.32803898291269, 32.74997790485645]}, "properties": {"NAME": "UNKNOWN27018", "MAX_VOLTAG": 345, "MIN_VOLTAG": 345, "CITY": "NOT AVAILABLE", "STATE": "TX", "LATITUDE": 32.749977905, "LONGITUDE": -99.3280389829999, "LINES": 3}}, {"type": "Feature", "geometry": {"type": "Point", "coordinates": [-97.4770642096455, 32.908267430697435]}, "properties": {"NAME": "UNKNOWN27021", "MAX_VOLTAG": 345, "MIN_VOLTAG": 345, "CITY": "NOT AVAILABLE", "STATE": "TX", "LATITUDE": 32.9082674310001, "LONGITUDE": -97.47706421, "LINES": 4}}, {"type": "Feature", "geometry": {"type": "Point", "coordinates": [-97.47149347164634, 32.68492139410711]}, "properties": {"NAME": "UNKNOWN27022", "MAX_VOLTAG": 345, "MIN_VOLTAG": 345, "CITY": "NOT AVAILABLE", "STATE": "TX", "LATITUDE": 32.6849213940001, "LONGITUDE": -97.471493472, "LINES": 4}}, {"type": "Feature", "geometry": {"type": "Point", "coordinates": [-97.30596694841591, 32.95664150130432]}, "properties": {"NAME": "UNKNOWN27046", "MAX_VOLTAG": 345, "MIN_VOLTAG": 345, "CITY": "NOT AVAILABLE", "STATE": "TX", "LATITUDE": 32.956641501, "LONGITUDE": -97.305966948, "LINES": 2}}, {"type": "Feature", "geometry": {"type": "Point", "coordinates": [-100.7271692475627, 32.3785034881455]}, "properties": {"NAME": "UNKNOWN27074", "MAX_VOLTAG": 345, "MIN_VOLTAG": 345, "CITY": "HERMLEIGH", "STATE": "TX", "LATITUDE": 32.378503488, "LONGITUDE": -100.727169248, "LINES": 3}}, {"type": "Feature", "geometry": {"type": "Point", "coordinates": [-100.68420241910633, 32.53073209870746]}, "properties": {"NAME": "UNKNOWN27076", "MAX_VOLTAG": 345, "MIN_VOLTAG": 345, "CITY": "LORAINE", "STATE": "TX", "LATITUDE": 32.530732099, "LONGITUDE": -100.684202419, "LINES": 10}}, {"type": "Feature", "geometry": {"type": "Point", "coordinates": [-100.3521404969863, 32.43783246769431]}, "properties": {"NAME": "UNKNOWN27080", "MAX_VOLTAG": 345, "MIN_VOLTAG": 345, "CITY": "NOT AVAILABLE", "STATE": "TX", "LATITUDE": 32.4378324680001, "LONGITUDE": -100.352140497, "LINES": 4}}, {"type": "Feature", "geometry": {"type": "Point", "coordinates": [-100.21692951108804, 32.4640039829975]}, "properties": {"NAME": "UNKNOWN27083", "MAX_VOLTAG": 345, "MIN_VOLTAG": 345, "CITY": "NOT AVAILABLE", "STATE": "TX", "LATITUDE": 32.4640039830001, "LONGITUDE": -100.216929511, "LINES": 8}}, {"type": "Feature", "geometry": {"type": "Point", "coordinates": [-99.8225567515928, 32.52405655796383]}, "properties": {"NAME": "UNKNOWN27085", "MAX_VOLTAG": 345, "MIN_VOLTAG": 345, "CITY": "ABILENE", "STATE": "TX", "LATITUDE": 32.524056558, "LONGITUDE": -99.822556752, "LINES": 8}}, {"type": "Feature", "geometry": {"type": "Point", "coordinates": [-99.54114350856605, 32.62917357699905]}, "properties": {"NAME": "UNKNOWN27088", "MAX_VOLTAG": 345, "MIN_VOLTAG": 345, "CITY": "CLYDE", "STATE": "TX", "LATITUDE": 32.6291735770001, "LONGITUDE": -99.5411435089999, "LINES": 4}}, {"type": "Feature", "geometry": {"type": "Point", "coordinates": [-97.69727120580148, 32.402523014825306]}, "properties": {"NAME": "UNKNOWN27092", "MAX_VOLTAG": 345, "MIN_VOLTAG": 345, "CITY": "MC CAMEY", "STATE": "TX", "LATITUDE": 32.402523015, "LONGITUDE": -97.697271206, "LINES": 4}}, {"type": "Feature", "geometry": {"type": "Point", "coordinates": [-100.59797167295432, 31.51372435329631]}, "properties": {"NAME": "UNKNOWN27111", "MAX_VOLTAG": 345, "MIN_VOLTAG": 345, "CITY": "NOT AVAILABLE", "STATE": "TX", "LATITUDE": 31.513724353, "LONGITUDE": -100.597971673, "LINES": 7}}, {"type": "Feature", "geometry": {"type": "Point", "coordinates": [-100.54309621172075, 31.04719175639451]}, "properties": {"NAME": "UNKNOWN27116", "MAX_VOLTAG": 345, "MIN_VOLTAG": 345, "CITY": "NOT AVAILABLE", "STATE": "TX", "LATITUDE": 31.0471917560001, "LONGITUDE": -100.543096212, "LINES": 4}}, {"type": "Feature", "geometry": {"type": "Point", "coordinates": [-100.32120979639495, 31.52909767641671]}, "properties": {"NAME": "UNKNOWN27143", "MAX_VOLTAG": 345, "MIN_VOLTAG": 345, "CITY": "SAN ANGELO", "STATE": "TX", "LATITUDE": 31.529097676, "LONGITUDE": -100.321209796, "LINES": 10}}, {"type": "Feature", "geometry": {"type": "Point", "coordinates": [-99.19521274906907, 31.53798859989405]}, "properties": {"NAME": "UNKNOWN27167", "MAX_VOLTAG": 345, "MIN_VOLTAG": 345, "CITY": "NOT AVAILABLE", "STATE": "TX", "LATITUDE": 31.5379886000001, "LONGITUDE": -99.195212749, "LINES": 8}}, {"type": "Feature", "geometry": {"type": "Point", "coordinates": [-98.71819021970282, 29.416135658433916]}, "properties": {"NAME": "UNKNOWN27199", "MAX_VOLTAG": 345, "MIN_VOLTAG": 345, "CITY": "SAN ANTONIO", "STATE": "TX", "LATITUDE": 29.416135658, "LONGITUDE": -98.7181902199999, "LINES": 13}}, {"type": "Feature", "geometry": {"type": "Point", "coordinates": [-98.60945246356033, 33.138418441158194]}, "properties": {"NAME": "UNKNOWN27214", "MAX_VOLTAG": 345, "MIN_VOLTAG": 345, "CITY": "LEON VALLEY", "STATE": "TX", "LATITUDE": 33.1384184410001, "LONGITUDE": -98.609452464, "LINES": 9}}, {"type": "Feature", "geometry": {"type": "Point", "coordinates": [-98.57167785564849, 29.619386226093525]}, "properties": {"NAME": "UNKNOWN27222", "MAX_VOLTAG": 345, "MIN_VOLTAG": 345, "CITY": "SAN ANTONIO", "STATE": "TX", "LATITUDE": 29.6193862260001, "LONGITUDE": -98.571677856, "LINES": 5}}, {"type": "Feature", "geometry": {"type": "Point", "coordinates": [-94.76860909403445, 31.37014864444444]}, "properties": {"NAME": "UNKNOWN27243", "MAX_VOLTAG": 345, "MIN_VOLTAG": 345, "CITY": "CLEVELAND", "STATE": "TX", "LATITUDE": 31.370148644, "LONGITUDE": -94.7686090939999, "LINES": 1}}, {"type": "Feature", "geometry": {"type": "Point", "coordinates": [-94.71989392676329, 33.434268001866826]}, "properties": {"NAME": "UNKNOWN27246", "MAX_VOLTAG": 345, "MIN_VOLTAG": 345, "CITY": "DIANA", "STATE": "TX", "LATITUDE": 33.4342680020001, "LONGITUDE": -94.719893927, "LINES": 3}}, {"type": "Feature", "geometry": {"type": "Point", "coordinates": [-94.69829025968772, 32.744327860142675]}, "properties": {"NAME": "UNKNOWN27248", "MAX_VOLTAG": 345, "MIN_VOLTAG": 345, "CITY": "LIBERTY", "STATE": "TX", "LATITUDE": 32.7443278600001, "LONGITUDE": -94.69829026, "LINES": 7}}, {"type": "Feature", "geometry": {"type": "Point", "coordinates": [-94.62430248367264, 32.01469903393331]}, "properties": {"NAME": "UNKNOWN27252", "MAX_VOLTAG": 345, "MIN_VOLTAG": 345, "CITY": "NOT AVAILABLE", "STATE": "TX", "LATITUDE": 32.014699034, "LONGITUDE": -94.6243024839999, "LINES": 4}}, {"type": "Feature", "geometry": {"type": "Point", "coordinates": [-94.62123972643218, 32.017771746668814]}, "properties": {"NAME": "UNKNOWN27253", "MAX_VOLTAG": 345, "MIN_VOLTAG": 345, "CITY": "NOT AVAILABLE", "STATE": "TX", "LATITUDE": 32.017771747, "LONGITUDE": -94.6212397259999, "LINES": 3}}, {"type": "Feature", "geometry": {"type": "Point", "coordinates": [-94.61147822593932, 31.584200013220084]}, "properties": {"NAME": "UNKNOWN27256", "MAX_VOLTAG": 345, "MIN_VOLTAG": 345, "CITY": "NOT AVAILABLE", "STATE": "TX", "LATITUDE": 31.584200013, "LONGITUDE": -94.611478226, "LINES": 1}}, {"type": "Feature", "geometry": {"type": "Point", "coordinates": [-94.57487705073527, 32.257472147121916]}, "properties": {"NAME": "UNKNOWN27257", "MAX_VOLTAG": 345, "MIN_VOLTAG": 345, "CITY": "AVINGER", "STATE": "TX", "LATITUDE": 32.257472147, "LONGITUDE": -94.574877051, "LINES": 6}}, {"type": "Feature", "geometry": {"type": "Point", "coordinates": [-94.55103380106902, 32.84931966027415]}, "properties": {"NAME": "UNKNOWN27259", "MAX_VOLTAG": 345, "MIN_VOLTAG": 345, "CITY": "JEFFERSON", "STATE": "TX", "LATITUDE": 32.84931966, "LONGITUDE": -94.551033801, "LINES": 3}}, {"type": "Feature", "geometry": {"type": "Point", "coordinates": [-94.47860505557884, 32.46344557235534]}, "properties": {"NAME": "UNKNOWN27261", "MAX_VOLTAG": 345, "MIN_VOLTAG": 345, "CITY": "NOT AVAILABLE", "STATE": "TX", "LATITUDE": 32.4634455720001, "LONGITUDE": -94.4786050559999, "LINES": 8}}, {"type": "Feature", "geometry": {"type": "Point", "coordinates": [-94.25720243504429, 30.30363404957177]}, "properties": {"NAME": "UNKNOWN27274", "MAX_VOLTAG": 500, "MIN_VOLTAG": 500, "CITY": "MARSHALL", "STATE": "TX", "LATITUDE": 30.30363405, "LONGITUDE": -94.257202435, "LINES": 6}}, {"type": "Feature", "geometry": {"type": "Point", "coordinates": [-94.17606403702564, 33.48833171433722]}, "properties": {"NAME": "UNKNOWN27279", "MAX_VOLTAG": 345, "MIN_VOLTAG": 345, "CITY": "BEAUMONT", "STATE": "TX", "LATITUDE": 33.488331714, "LONGITUDE": -94.1760640369999, "LINES": 6}}, {"type": "Feature", "geometry": {"type": "Point", "coordinates": [-93.73866407218912, 30.266668158808557]}, "properties": {"NAME": "UNKNOWN27307", "MAX_VOLTAG": 500, "MIN_VOLTAG": 500, "CITY": "NOT AVAILABLE", "STATE": "TX", "LATITUDE": 30.2666681590001, "LONGITUDE": -93.7386640719999, "LINES": 6}}, {"type": "Feature", "geometry": {"type": "Point", "coordinates": [-93.73785518327003, 30.259695762649358]}, "properties": {"NAME": "UNKNOWN27308", "MAX_VOLTAG": 500, "MIN_VOLTAG": 500, "CITY": "HOUSTON", "STATE": "TX", "LATITUDE": 30.259695763, "LONGITUDE": -93.737855183, "LINES": 3}}, {"type": "Feature", "geometry": {"type": "Point", "coordinates": [-95.61649574038609, 33.08573781314959]}, "properties": {"NAME": "UNKNOWN27315", "MAX_VOLTAG": 345, "MIN_VOLTAG": 345, "CITY": "MONTGOMERY", "STATE": "TX", "LATITUDE": 33.085737813, "LONGITUDE": -95.6164957399999, "LINES": 4}}, {"type": "Feature", "geometry": {"type": "Point", "coordinates": [-95.58134428581013, 33.638994249085385]}, "properties": {"NAME": "UNKNOWN27322", "MAX_VOLTAG": 345, "MIN_VOLTAG": 345, "CITY": "HOUSTON", "STATE": "TX", "LATITUDE": 33.6389942490001, "LONGITUDE": -95.581344286, "LINES": 11}}, {"type": "Feature", "geometry": {"type": "Point", "coordinates": [-95.57299538103194, 29.822577040997714]}, "properties": {"NAME": "UNKNOWN27330", "MAX_VOLTAG": 345, "MIN_VOLTAG": 345, "CITY": "HOUSTON", "STATE": "TX", "LATITUDE": 29.822577041, "LONGITUDE": -95.5729953809999, "LINES": 8}}, {"type": "Feature", "geometry": {"type": "Point", "coordinates": [-95.53669257120515, 29.71871898919005]}, "properties": {"NAME": "UNKNOWN27346", "MAX_VOLTAG": 345, "MIN_VOLTAG": 345, "CITY": "HOUSTON", "STATE": "TX", "LATITUDE": 29.718718989, "LONGITUDE": -95.5366925709999, "LINES": 8}}, {"type": "Feature", "geometry": {"type": "Point", "coordinates": [-95.48996680502398, 30.090705809025906]}, "properties": {"NAME": "UNKNOWN27366", "MAX_VOLTAG": 345, "MIN_VOLTAG": 345, "CITY": "NOT AVAILABLE", "STATE": "TX", "LATITUDE": 30.090705809, "LONGITUDE": -95.4899668049999, "LINES": 2}}, {"type": "Feature", "geometry": {"type": "Point", "coordinates": [-95.45053882770469, 29.724687986561378]}, "properties": {"NAME": "UNKNOWN27372", "MAX_VOLTAG": 345, "MIN_VOLTAG": 345, "CITY": "NOT AVAILABLE", "STATE": "TX", "LATITUDE": 29.724687987, "LONGITUDE": -95.450538828, "LINES": 9}}, {"type": "Feature", "geometry": {"type": "Point", "coordinates": [-95.43482694940417, 29.815179296087706]}, "properties": {"NAME": "UNKNOWN27379", "MAX_VOLTAG": 345, "MIN_VOLTAG": 345, "CITY": "HOUSTON", "STATE": "TX", "LATITUDE": 29.8151792960001, "LONGITUDE": -95.434826949, "LINES": 12}}, {"type": "Feature", "geometry": {"type": "Point", "coordinates": [-95.36973427691532, 29.940626315552095]}, "properties": {"NAME": "UNKNOWN27393", "MAX_VOLTAG": 345, "MIN_VOLTAG": 345, "CITY": "NOT AVAILABLE", "STATE": "TX", "LATITUDE": 29.9406263160001, "LONGITUDE": -95.369734277, "LINES": 8}}, {"type": "Feature", "geometry": {"type": "Point", "coordinates": [-95.35814440613939, 28.985928274370394]}, "properties": {"NAME": "UNKNOWN27396", "MAX_VOLTAG": 345, "MIN_VOLTAG": 345, "CITY": "HOUSTON", "STATE": "TX", "LATITUDE": 28.9859282740001, "LONGITUDE": -95.358144406, "LINES": 9}}, {"type": "Feature", "geometry": {"type": "Point", "coordinates": [-95.34644002828463, 32.27985721623759]}, "properties": {"NAME": "UNKNOWN27402", "MAX_VOLTAG": 345, "MIN_VOLTAG": 345, "CITY": "CONROE", "STATE": "TX", "LATITUDE": 32.279857216, "LONGITUDE": -95.346440028, "LINES": 4}}, {"type": "Feature", "geometry": {"type": "Point", "coordinates": [-95.30831252999923, 29.456208063851136]}, "properties": {"NAME": "UNKNOWN27407", "MAX_VOLTAG": 345, "MIN_VOLTAG": 345, "CITY": "TYLER", "STATE": "TX", "LATITUDE": 29.4562080640001, "LONGITUDE": -95.30831253, "LINES": 5}}, {"type": "Feature", "geometry": {"type": "Point", "coordinates": [-95.25762313140234, 29.45968677282633]}, "properties": {"NAME": "UNKNOWN27413", "MAX_VOLTAG": 345, "MIN_VOLTAG": 345, "CITY": "NOT AVAILABLE", "STATE": "TX", "LATITUDE": 29.459686773, "LONGITUDE": -95.2576231309999, "LINES": 4}}, {"type": "Feature", "geometry": {"type": "Point", "coordinates": [-95.2577155376419, 32.27751335635634]}, "properties": {"NAME": "UNKNOWN27414", "MAX_VOLTAG": 345, "MIN_VOLTAG": 345, "CITY": "PEARLAND", "STATE": "TX", "LATITUDE": 32.277513356, "LONGITUDE": -95.257715538, "LINES": 6}}, {"type": "Feature", "geometry": {"type": "Point", "coordinates": [-95.25346089900125, 32.41989214310797]}, "properties": {"NAME": "UNKNOWN27417", "MAX_VOLTAG": 345, "MIN_VOLTAG": 345, "CITY": "HOUSTON", "STATE": "TX", "LATITUDE": 32.419892143, "LONGITUDE": -95.2534608989999, "LINES": 5}}, {"type": "Feature", "geometry": {"type": "Point", "coordinates": [-95.21631873931835, 29.915342215271096]}, "properties": {"NAME": "UNKNOWN27424", "MAX_VOLTAG": 345, "MIN_VOLTAG": 345, "CITY": "NOT AVAILABLE", "STATE": "TX", "LATITUDE": 29.9153422150001, "LONGITUDE": -95.216318739, "LINES": 6}}, {"type": "Feature", "geometry": {"type": "Point", "coordinates": [-95.04202744680919, 33.091664554075976]}, "properties": {"NAME": "UNKNOWN27448", "MAX_VOLTAG": 345, "MIN_VOLTAG": 345, "CITY": "NOT AVAILABLE", "STATE": "TX", "LATITUDE": 33.091664554, "LONGITUDE": -95.042027447, "LINES": 7}}, {"type": "Feature", "geometry": {"type": "Point", "coordinates": [-94.99325640286065, 31.937776129764643]}, "properties": {"NAME": "UNKNOWN27456", "MAX_VOLTAG": 345, "MIN_VOLTAG": 345, "CITY": "BAYTOWN", "STATE": "TX", "LATITUDE": 31.93777613, "LONGITUDE": -94.993256403, "LINES": 6}}, {"type": "Feature", "geometry": {"type": "Point", "coordinates": [-94.84405250821663, 33.05830321891847]}, "properties": {"NAME": "UNKNOWN27469", "MAX_VOLTAG": 345, "MIN_VOLTAG": 345, "CITY": "NOT AVAILABLE", "STATE": "TX", "LATITUDE": 33.058303219, "LONGITUDE": -94.8440525079999, "LINES": 2}}, {"type": "Feature", "geometry": {"type": "Point", "coordinates": [-94.83753574817621, 33.055063241275604]}, "properties": {"NAME": "UNKNOWN27470", "MAX_VOLTAG": 345, "MIN_VOLTAG": 345, "CITY": "GALVESTON", "STATE": "TX", "LATITUDE": 33.055063241, "LONGITUDE": -94.8375357479999, "LINES": 9}}, {"type": "Feature", "geometry": {"type": "Point", "coordinates": [-101.27323586904009, 32.00354353930294]}, "properties": {"NAME": "UNKNOWN29999", "MAX_VOLTAG": 345, "MIN_VOLTAG": 345, "CITY": "NOT AVAILABLE", "STATE": "TX", "LATITUDE": 32.0035435390001, "LONGITUDE": -101.273235869, "LINES": 3}}, {"type": "Feature", "geometry": {"type": "Point", "coordinates": [-101.88156215916626, 32.16637232212503]}, "properties": {"NAME": "UNKNOWN30002", "MAX_VOLTAG": 345, "MIN_VOLTAG": 345, "CITY": "MIDLAND", "STATE": "TX", "LATITUDE": 32.166372322, "LONGITUDE": -101.881562159, "LINES": 2}}, {"type": "Feature", "geometry": {"type": "Point", "coordinates": [-97.38393067036412, 32.90466084801977]}, "properties": {"NAME": "HICKS", "MAX_VOLTAG": 345, "MIN_VOLTAG": 345, "CITY": "FORT WORTH", "STATE": "TX", "LATITUDE": 32.904660848, "LONGITUDE": -97.38393067, "LINES": 2}}, {"type": "Feature", "geometry": {"type": "Point", "coordinates": [-98.61088952083469, 33.38672531312278]}, "properties": {"NAME": "UNKNOWN30208", "MAX_VOLTAG": 345, "MIN_VOLTAG": 345, "CITY": "NOT AVAILABLE", "STATE": "TX", "LATITUDE": 33.3867253130001, "LONGITUDE": -98.610889521, "LINES": 3}}, {"type": "Feature", "geometry": {"type": "Point", "coordinates": [-99.60549003243904, 33.00127738424396]}, "properties": {"NAME": "UNKNOWN30257", "MAX_VOLTAG": 345, "MIN_VOLTAG": 345, "CITY": "NOT AVAILABLE", "STATE": "TX", "LATITUDE": 33.001277384, "LONGITUDE": -99.605490032, "LINES": 8}}, {"type": "Feature", "geometry": {"type": "Point", "coordinates": [-94.92742235895469, 29.854661326259247]}, "properties": {"NAME": "UNKNOWN30409", "MAX_VOLTAG": 345, "MIN_VOLTAG": 345, "CITY": "NOT AVAILABLE", "STATE": "TX", "LATITUDE": 29.854661326, "LONGITUDE": -94.927422359, "LINES": 4}}, {"type": "Feature", "geometry": {"type": "Point", "coordinates": [-97.01789922227124, 31.897472317993106]}, "properties": {"NAME": "UNKNOWN30474", "MAX_VOLTAG": 345, "MIN_VOLTAG": 345, "CITY": "NOT AVAILABLE", "STATE": "TX", "LATITUDE": 31.897472318, "LONGITUDE": -97.017899222, "LINES": 7}}, {"type": "Feature", "geometry": {"type": "Point", "coordinates": [-96.51831214968593, 31.96397428658412]}, "properties": {"NAME": "UNKNOWN30475", "MAX_VOLTAG": 345, "MIN_VOLTAG": 345, "CITY": "NOT AVAILABLE", "STATE": "TX", "LATITUDE": 31.963974287, "LONGITUDE": -96.51831215, "LINES": 9}}, {"type": "Feature", "geometry": {"type": "Point", "coordinates": [-97.08344836994627, 32.68007346371945]}, "properties": {"NAME": "UNKNOWN30544", "MAX_VOLTAG": 345, "MIN_VOLTAG": 345, "CITY": "ARLINGTON", "STATE": "TX", "LATITUDE": 32.680073464, "LONGITUDE": -97.08344837, "LINES": 4}}, {"type": "Feature", "geometry": {"type": "Point", "coordinates": [-97.1308525837797, 32.65617156926254]}, "properties": {"NAME": "UNKNOWN30545", "MAX_VOLTAG": 345, "MIN_VOLTAG": 345, "CITY": "ANNA", "STATE": "TX", "LATITUDE": 32.656171569, "LONGITUDE": -97.130852584, "LINES": 2}}, {"type": "Feature", "geometry": {"type": "Point", "coordinates": [-97.5396673950342, 30.275460668575022]}, "properties": {"NAME": "UNKNOWN30901", "MAX_VOLTAG": 345, "MIN_VOLTAG": 345, "CITY": "AUSTIN", "STATE": "TX", "LATITUDE": 30.275460669, "LONGITUDE": -97.539667395, "LINES": 5}}, {"type": "Feature", "geometry": {"type": "Point", "coordinates": [-97.31069391459243, 33.32444306429602]}, "properties": {"NAME": "UNKNOWN29239", "MAX_VOLTAG": 345, "MIN_VOLTAG": 345, "CITY": "BRUCETON MILLS", "STATE": "TX", "LATITUDE": 33.324443064, "LONGITUDE": -97.3106939149999, "LINES": 7}}, {"type": "Feature", "geometry": {"type": "Point", "coordinates": [-97.3129910349083, 31.056339566717668]}, "properties": {"NAME": "UNKNOWN31075", "MAX_VOLTAG": 345, "MIN_VOLTAG": 345, "CITY": "BURNET", "STATE": "TX", "LATITUDE": 31.0563395670001, "LONGITUDE": -97.312991035, "LINES": 4}}, {"type": "Feature", "geometry": {"type": "Point", "coordinates": [-95.308269521721, 29.457804499877795]}, "properties": {"NAME": "TAP", "MAX_VOLTAG": 345, "MIN_VOLTAG": 345, "CITY": "PASADENA", "STATE": "TX", "LATITUDE": 29.4578045000001, "LONGITUDE": -95.308269522, "LINES": 3}}]}